kakao_id,name,phone,address,latitude,longitude,category,url,source,website,instagram,description,created_at,updated_at
752838860,아난다요가,070-4133-2177,서울 서대문구 연희로11가길 48-10,37.56696602058012,126.92745037231091,"스포츠,레저 > 요가,필라테스 > 요가원",http://place.map.kakao.com/752838860,kakao,,,,2025-10-14T08:13:50.491Z,2025-10-14T08:13:51.061Z
1261497538,아메리카요가 홍대점,0502-5551-4302,서울 마포구 양화로 166,37.556741249877874,126.92416462191098,"스포츠,레저 > 요가,필라테스 > 요가원 > 아메리카요가",http://place.map.kakao.com/1261497538,kakao,,,,2025-10-14T08:13:50.492Z,2025-10-14T08:13:51.061Z
12818607,아메리카요가 건대점,02-464-2020,서울 광진구 아차산로 213,37.5413718511628,127.06718517506,"스포츠,레저 > 요가,필라테스 > 요가원 > 아메리카요가",http://place.map.kakao.com/12818607,kakao,,,,2025-10-14T08:13:50.492Z,2025-10-14T08:13:51.061Z
1677661374,아메리카요가 연신내점,02-387-7888,서울 은평구 연서로 201,37.616743742371,126.91872924448,"스포츠,레저 > 요가,필라테스 > 요가원 > 아메리카요가",http://place.map.kakao.com/1677661374,kakao,,,,2025-10-14T08:13:50.492Z,2025-10-14T08:13:51.061Z
745056355,아메리카요가 서울대입구역점,02-877-3575,서울 관악구 남부순환로 1797,37.4818852340336,126.949926964037,"스포츠,레저 > 요가,필라테스 > 요가원 > 아메리카요가",http://place.map.kakao.com/745056355,kakao,,,,2025-10-14T08:13:50.492Z,2025-10-14T08:13:51.061Z
163525068,아메리카요가플러스기구필라테스 부천점,032-654-5400,경기 부천시 원미구 부천로 3-1,37.484678639008294,126.78187672379681,"스포츠,레저 > 요가,필라테스 > 요가원 > 아메리카요가",http://place.map.kakao.com/163525068,kakao,,,,2025-10-14T08:13:50.492Z,2025-10-14T08:13:57.473Z
899835575,아메리카요가 종로점,0503-7151-7303,서울 종로구 삼일대로17길 51,37.5690956427065,126.98463957341,"스포츠,레저 > 요가,필라테스 > 요가원 > 아메리카요가",http://place.map.kakao.com/899835575,kakao,,,,2025-10-14T08:13:50.492Z,2025-10-14T08:13:51.061Z
1991008447,아메리카요가 삼성중앙역점,02-516-5151,서울 강남구 봉은사로 467,37.5125192175023,127.050627366468,"스포츠,레저 > 요가,필라테스 > 요가원 > 아메리카요가",http://place.map.kakao.com/1991008447,kakao,,,,2025-10-14T08:13:50.492Z,2025-10-14T08:13:51.061Z
969081911,아메리카요가 문정점,02-424-8080,서울 송파구 법원로 114,37.4860541974218,127.12101051106,"스포츠,레저 > 요가,필라테스 > 요가원 > 아메리카요가",http://place.map.kakao.com/969081911,kakao,,,,2025-10-14T08:13:50.492Z,2025-10-14T08:13:51.061Z
13126136,아메리카요가 청량리점,0503-7152-6729,서울 동대문구 왕산로 225,37.58167879470341,127.0467230262263,"스포츠,레저 > 요가,필라테스 > 요가원 > 아메리카요가",http://place.map.kakao.com/13126136,kakao,,,,2025-10-14T08:13:50.492Z,2025-10-14T08:13:51.061Z
1875542754,아메리카요가 중계점,02-933-1717,서울 노원구 한글비석로 232,37.6484469235989,127.07694042182,"스포츠,레저 > 요가,필라테스 > 요가원 > 아메리카요가",http://place.map.kakao.com/1875542754,kakao,,,,2025-10-14T08:13:50.492Z,2025-10-14T08:13:51.061Z
27220112,아메리카요가 당산점,0502-5551-6122,서울 영등포구 당산로 222,37.5332847771332,126.902278851576,"스포츠,레저 > 요가,필라테스 > 요가원 > 아메리카요가",http://place.map.kakao.com/27220112,kakao,,,,2025-10-14T08:13:50.492Z,2025-10-14T08:13:51.061Z
795087509,아메리카요가 용산점,02-792-9777,서울 용산구 새창로 213-12,37.5304773126681,126.968000721598,"스포츠,레저 > 요가,필라테스 > 요가원 > 아메리카요가",http://place.map.kakao.com/795087509,kakao,,,,2025-10-14T08:13:50.492Z,2025-10-14T08:13:51.061Z
1822059246,아메리카요가 서대문역점,02-363-7773,서울 서대문구 통일로 127,37.5658535680153,126.966002522358,"스포츠,레저 > 요가,필라테스 > 요가원 > 아메리카요가",http://place.map.kakao.com/1822059246,kakao,,,,2025-10-14T08:13:50.492Z,2025-10-14T08:13:51.061Z
544475571,아메리카요가 잠실새내역점,02-423-5505,서울 송파구 올림픽로 120,37.5113792841731,127.084092626722,"스포츠,레저 > 요가,필라테스 > 요가원 > 아메리카요가",http://place.map.kakao.com/544475571,kakao,,,,2025-10-14T08:13:50.492Z,2025-10-14T08:13:51.061Z
1724048373,아메리카요가 부평역점,032-508-5660,인천 부평구 경원대로 1404,37.4909067618118,126.725058461152,"스포츠,레저 > 요가,필라테스 > 요가원 > 아메리카요가",http://place.map.kakao.com/1724048373,kakao,,,,2025-10-14T08:13:50.713Z,2025-10-14T08:13:51.282Z
27306514,아메리카요가 석계역점,02-943-0214,서울 노원구 석계로 17,37.616282113141544,127.06426117680392,"스포츠,레저 > 요가,필라테스 > 요가원 > 아메리카요가",http://place.map.kakao.com/27306514,kakao,,,,2025-10-14T08:13:50.713Z,2025-10-14T08:13:51.283Z
27540554,아메리카요가 여의도점,02-784-4545,서울 영등포구 여의대방로 394,37.5193945970331,126.932762138619,"스포츠,레저 > 요가,필라테스 > 요가원 > 아메리카요가",http://place.map.kakao.com/27540554,kakao,,,,2025-10-14T08:13:50.713Z,2025-10-14T08:13:51.283Z
2090456985,모크샤요가원,070-4145-9945,서울 강동구 양재대로110길 12,37.53541000453357,127.14002243487477,"스포츠,레저 > 요가,필라테스 > 요가원",http://place.map.kakao.com/2090456985,kakao,,,,2025-10-14T08:13:50.713Z,2025-10-14T08:13:51.283Z
1753793688,아메리카요가 발산점,02-3663-4040,서울 강서구 강서로 360,37.55760261381681,126.83821747492648,"스포츠,레저 > 요가,필라테스 > 요가원 > 아메리카요가",http://place.map.kakao.com/1753793688,kakao,,,,2025-10-14T08:13:50.713Z,2025-10-14T08:13:51.283Z
627850280,아메리카요가 목동점,02-2061-3131,서울 양천구 등촌로 32,37.5328866834305,126.864160512428,"스포츠,레저 > 요가,필라테스 > 요가원 > 아메리카요가",http://place.map.kakao.com/627850280,kakao,,,,2025-10-14T08:13:50.713Z,2025-10-14T08:13:51.283Z
17351297,아메리카요가 마들점,02-951-1010,서울 노원구 동일로 1533,37.6653641505498,127.057245784711,"스포츠,레저 > 요가,필라테스 > 요가원 > 아메리카요가",http://place.map.kakao.com/17351297,kakao,,,,2025-10-14T08:13:50.713Z,2025-10-14T08:13:51.283Z
6355922,아메리카요가 자양점,02-452-5888,서울 광진구 자양번영로 45,37.5337082416636,127.075632156206,"스포츠,레저 > 요가,필라테스 > 요가원 > 아메리카요가",http://place.map.kakao.com/6355922,kakao,,,,2025-10-14T08:13:50.713Z,2025-10-14T08:13:51.283Z
95861154,데이브요가스튜디오,,부산 수영구 수영로 724-1,35.16818614991969,129.11869350614842,"스포츠,레저 > 요가,필라테스 > 요가원",http://place.map.kakao.com/95861154,kakao,,,,2025-10-14T08:13:50.713Z,2025-10-14T08:13:51.553Z
65686551,사트얌요가 공덕점,02-749-9091,서울 마포구 새창로 40,37.5412378543066,126.954026393426,"스포츠,레저 > 요가,필라테스 > 요가원",http://place.map.kakao.com/65686551,kakao,,,,2025-10-14T08:13:50.714Z,2025-10-14T08:13:51.283Z
2136864071,무니요가 역삼,0502-5551-5471,서울 강남구 논현로85길 5-12,37.4986055711474,127.036911765361,"스포츠,레저 > 요가,필라테스 > 요가원",http://place.map.kakao.com/2136864071,kakao,,,,2025-10-14T08:13:50.714Z,2025-10-14T08:13:57.523Z
1379996903,아쉬탕가 비드야요가,02-6052-1542,서울 서초구 강남대로97길 17,37.5145936671408,127.018833087753,"스포츠,레저 > 요가,필라테스 > 요가원",http://place.map.kakao.com/1379996903,kakao,,,,2025-10-14T08:13:50.714Z,2025-10-14T08:13:56.486Z
866391298,한주훈요가,010-4452-5272,제주특별자치도 제주시 동문로9길 16,33.514288548137806,126.53039406142419,"스포츠,레저 > 요가,필라테스 > 요가원",http://place.map.kakao.com/866391298,kakao,,,,2025-10-14T08:13:50.714Z,2025-10-14T08:13:51.283Z
1985027700,비하요가,010-6674-9572,서울 강남구 도곡로 133,37.4906954299329,127.034601130607,"스포츠,레저 > 요가,필라테스 > 요가원",http://place.map.kakao.com/1985027700,kakao,,,,2025-10-14T08:13:50.714Z,2025-10-14T08:13:51.283Z
292762694,하루고요 요가&명상,0503-7150-9316,서울 서초구 서초중앙로28길 14,37.496772372687175,127.01467840103567,"스포츠,레저 > 요가,필라테스 > 요가원",http://place.map.kakao.com/292762694,kakao,,,,2025-10-14T08:13:50.714Z,2025-10-14T08:13:53.366Z
10599621,아난드요가원,010-5657-3936,제주특별자치도 제주시 한라대학로 107,33.47650210670202,126.48180567302406,"스포츠,레저 > 요가,필라테스 > 요가원",http://place.map.kakao.com/10599621,kakao,,,,2025-10-14T08:13:50.989Z,2025-10-14T08:13:51.502Z
1932952297,이안요가,010-9639-6005,서울 송파구 양재대로71길 16,37.510749951170446,127.12525111702506,"스포츠,레저 > 요가,필라테스 > 요가원",http://place.map.kakao.com/1932952297,kakao,,,,2025-10-14T08:13:50.989Z,2025-10-14T08:13:51.502Z
1005521923,원모어요가,010-3278-9911,서울 용산구 두텁바위로 47,37.5459568726366,126.977424777672,"스포츠,레저 > 요가,필라테스 > 요가원",http://place.map.kakao.com/1005521923,kakao,,,,2025-10-14T08:13:50.989Z,2025-10-14T08:13:51.502Z
903047634,사쉬요가,010-7590-2794,제주특별자치도 제주시 남광로 44,33.494066587687044,126.54020948086125,"스포츠,레저 > 요가,필라테스 > 요가원",http://place.map.kakao.com/903047634,kakao,,,,2025-10-14T08:13:50.989Z,2025-10-14T08:13:51.502Z
2071232046,로투스요가,010-8590-4612,서울 마포구 동교로52길 10,37.5639473782545,126.926954148642,"스포츠,레저 > 요가,필라테스 > 요가원",http://place.map.kakao.com/2071232046,kakao,,,,2025-10-14T08:13:50.989Z,2025-10-14T08:13:51.502Z
1721729351,아우어요가,010-6781-1997,경기 안산시 단원구 원선로 25,37.327480829045,126.796677210833,"스포츠,레저 > 요가,필라테스 > 요가원",http://place.map.kakao.com/1721729351,kakao,,,,2025-10-14T08:13:50.989Z,2025-10-14T08:13:53.326Z
1221059891,서뗘요가원,010-7775-1146,대전 서구 괴정로 108,36.33787775985777,127.38471686102842,"스포츠,레저 > 요가,필라테스 > 요가원",http://place.map.kakao.com/1221059891,kakao,,,,2025-10-14T08:13:50.989Z,2025-10-14T08:13:51.502Z
276023617,주요가 청담,010-7117-2970,서울 강남구 영동대로 721,37.52220470823596,127.05530476365868,"스포츠,레저 > 요가,필라테스 > 요가원",http://place.map.kakao.com/276023617,kakao,,,,2025-10-14T08:13:50.989Z,2025-10-14T08:13:51.502Z
113652714,비야나요가,053-795-7154,대구 수성구 시지로 50-1,35.8394468350879,128.693889877285,"스포츠,레저 > 요가,필라테스 > 요가원",http://place.map.kakao.com/113652714,kakao,,,,2025-10-14T08:13:50.989Z,2025-10-14T08:13:51.502Z
258246694,라자요가명상센터,010-9632-7773,부산 해운대구 해운대해변로 203,35.158722115392386,129.15379739141142,"스포츠,레저 > 요가,필라테스 > 요가원",http://place.map.kakao.com/258246694,kakao,,,,2025-10-14T08:13:50.989Z,2025-10-14T08:13:53.874Z
2072054396,에어리얼플로우요가,010-7322-3112,서울 은평구 증산로 235,37.5795980366815,126.904732745227,"스포츠,레저 > 요가,필라테스 > 요가원",http://place.map.kakao.com/2072054396,kakao,,,,2025-10-14T08:13:50.989Z,2025-10-14T08:13:51.502Z
825337043,썬플라워요가,010-8903-6533,서울 도봉구 노해로60길 65,37.64847889547,127.033760884433,"스포츠,레저 > 요가,필라테스 > 요가원",http://place.map.kakao.com/825337043,kakao,,,,2025-10-14T08:13:50.989Z,2025-10-14T08:13:51.502Z
10485609,선무도선요가 강남지원센터,02-599-5554,서울 서초구 방배로32길 7,37.49136696805724,126.99194894577766,"스포츠,레저 > 요가,필라테스 > 요가원",http://place.map.kakao.com/10485609,kakao,,,,2025-10-14T08:13:50.989Z,2025-10-14T08:13:51.502Z
793865332,수요가 구의점,010-8260-5006,서울 광진구 아차산로 445,37.5390198402588,127.091864146395,"스포츠,레저 > 요가,필라테스 > 요가원",http://place.map.kakao.com/793865332,kakao,,,,2025-10-14T08:13:50.989Z,2025-10-14T08:13:51.502Z
1585880402,다안요가,010-4191-3262,서울 송파구 송파대로16길 11,37.4847745851195,127.12465145301,"스포츠,레저 > 요가,필라테스 > 요가원",http://place.map.kakao.com/1585880402,kakao,,,,2025-10-14T08:13:50.989Z,2025-10-14T08:13:51.502Z
1467447860,요가스튜디오,063-272-3840,전북특별자치도 전주시 완산구 서곡1길 13-7,35.8347401173363,127.099469358662,"스포츠,레저 > 요가,필라테스 > 요가원",http://place.map.kakao.com/1467447860,kakao,,,,2025-10-14T08:13:51.553Z,2025-10-14T08:13:51.553Z
106828661,다라요가스튜디오,0502-5550-2277,제주특별자치도 제주시 조천읍 함대로 37-24,33.5400890192447,126.659264287246,"스포츠,레저 > 요가,필라테스 > 요가원",http://place.map.kakao.com/106828661,kakao,,,,2025-10-14T08:13:51.553Z,2025-10-14T08:13:51.553Z
1307992599,아카샤요가스튜디오,010-5066-2323,부산 부산진구 서전로9번길 6,35.15801108388183,129.06078845076544,"스포츠,레저 > 요가,필라테스 > 요가원",http://place.map.kakao.com/1307992599,kakao,,,,2025-10-14T08:13:51.553Z,2025-10-14T08:13:51.553Z
1075946017,정은영요가스튜디오,010-3365-1846,경기 의왕시 청계로 44,37.3921924978464,127.002213378336,"스포츠,레저 > 요가,필라테스 > 요가원",http://place.map.kakao.com/1075946017,kakao,,,,2025-10-14T08:13:51.553Z,2025-10-14T08:13:51.553Z
1140054276,요가스튜디오나무,010-2449-9709,경기 용인시 기흥구 흥덕2로65번길 1-17,37.2724916906468,127.07393816271,"스포츠,레저 > 요가,필라테스 > 요가원",http://place.map.kakao.com/1140054276,kakao,,,,2025-10-14T08:13:51.553Z,2025-10-14T08:13:51.553Z
2105606106,에센셜필라테스&요가스튜디오,070-8844-1296,부산 연제구 중앙천로 81-17,35.1802192660277,129.079289377922,"스포츠,레저 > 요가,필라테스",http://place.map.kakao.com/2105606106,kakao,,,,2025-10-14T08:13:51.553Z,2025-10-14T08:13:51.553Z
544092407,나디요가 스튜디오,0507-1331-7448,충북 청주시 청원구 율천북로 87,36.663036454659,127.480818262403,"스포츠,레저 > 요가,필라테스 > 요가원",http://place.map.kakao.com/544092407,kakao,,,,2025-10-14T08:13:51.553Z,2025-10-14T08:13:51.553Z
739429091,써니요가스튜디오,02-516-5568,서울 강남구 선릉로126길 6,37.515146096459,127.042634352086,"스포츠,레저 > 요가,필라테스 > 요가원",http://place.map.kakao.com/739429091,kakao,,,,2025-10-14T08:13:51.553Z,2025-10-14T08:13:51.553Z
1122826292,하이요가스튜디오,070-4404-5454,대전 유성구 관평2로 7-5,36.4255286743531,127.391522798274,"스포츠,레저 > 요가,필라테스 > 요가원",http://place.map.kakao.com/1122826292,kakao,,,,2025-10-14T08:13:51.553Z,2025-10-14T08:13:55.975Z
626412700,라니요가스튜디오,010-6534-8789,경기 하남시 덕풍동로 111-10,37.5517137266047,127.208330323869,"스포츠,레저 > 요가,필라테스 > 요가원",http://place.map.kakao.com/626412700,kakao,,,,2025-10-14T08:13:51.553Z,2025-10-14T08:13:51.553Z
1122582255,아델요가스튜디오,010-6649-3546,경기 안양시 동안구 평촌대로211번길 16,37.3903729134368,126.955033371072,"스포츠,레저 > 요가,필라테스 > 요가원",http://place.map.kakao.com/1122582255,kakao,,,,2025-10-14T08:13:51.553Z,2025-10-14T08:13:51.553Z
1484300248,요가온스튜디오,010-8835-4419,서울 영등포구 국제금융로 78,37.52087230026966,126.93129815686123,"스포츠,레저 > 요가,필라테스 > 요가원",http://place.map.kakao.com/1484300248,kakao,,,,2025-10-14T08:13:51.553Z,2025-10-14T08:13:51.553Z
2077269667,우노요가스튜디오,031-263-3456,경기 용인시 수지구 성복2로76번길 26-6,37.3146783509763,127.080700763161,"스포츠,레저 > 요가,필라테스 > 요가원",http://place.map.kakao.com/2077269667,kakao,,,,2025-10-14T08:13:51.553Z,2025-10-14T08:13:51.553Z
892617932,바디핏요가스튜디오,063-852-7151,전북특별자치도 익산시 서동로 126,35.93485201030415,126.96502684716948,"스포츠,레저 > 요가,필라테스 > 요가원",http://place.map.kakao.com/892617932,kakao,,,,2025-10-14T08:13:51.553Z,2025-10-14T08:13:51.553Z
1502916512,더플로우룸 요가스튜디오,,서울 용산구 녹사평대로32길 47,37.53271396991111,126.99079048551208,"스포츠,레저 > 요가,필라테스 > 요가원",http://place.map.kakao.com/1502916512,kakao,,,,2025-10-14T08:13:51.787Z,2025-10-14T08:13:51.787Z
17829099,아쉬탕가 요가스튜디오 강남점,02-582-4401,서울 서초구 사임당로 173,37.4927981952291,127.028554648668,"스포츠,레저 > 요가,필라테스 > 요가원",http://place.map.kakao.com/17829099,kakao,,,,2025-10-14T08:13:51.787Z,2025-10-14T08:13:56.486Z
697276093,요가&PT스튜디오,,서울 강남구 선릉로64길 10-4,37.4974956128459,127.053229505078,"스포츠,레저 > 요가,필라테스 > 요가원",http://place.map.kakao.com/697276093,kakao,,,,2025-10-14T08:13:51.787Z,2025-10-14T08:13:51.787Z
2131700117,슬로우벗베럴요가스튜디오,010-2397-8947,서울 송파구 올림픽로35길 104,37.5200934870132,127.103736626499,"스포츠,레저 > 요가,필라테스 > 요가원",http://place.map.kakao.com/2131700117,kakao,,,,2025-10-14T08:13:51.787Z,2025-10-14T08:13:51.787Z
718953494,진희요가스튜디오,010-2115-0340,전북특별자치도 전주시 덕진구 출판로 84,35.839347349328186,127.0618730993741,"스포츠,레저 > 요가,필라테스 > 요가원",http://place.map.kakao.com/718953494,kakao,,,,2025-10-14T08:13:51.787Z,2025-10-14T08:13:51.787Z
585258074,달그린요가스튜디오,010-2877-9048,서울 용산구 원효로83길 7-8,37.53988003518659,126.9675576824363,"스포츠,레저 > 요가,필라테스",http://place.map.kakao.com/585258074,kakao,,,,2025-10-14T08:13:51.787Z,2025-10-14T08:13:51.787Z
1775516365,느루요가스튜디오,,광주 북구 동문대로112번길 67,35.1743502050867,126.928715487113,"스포츠,레저 > 요가,필라테스 > 요가원",http://place.map.kakao.com/1775516365,kakao,,,,2025-10-14T08:13:51.787Z,2025-10-14T08:13:51.787Z
447484746,엘라플라잉&요가스튜디오,010-6799-3638,경기 부천시 원미구 길주로 246,37.5033589811295,126.7698977102,"스포츠,레저 > 요가,필라테스 > 요가원",http://place.map.kakao.com/447484746,kakao,,,,2025-10-14T08:13:51.787Z,2025-10-14T08:13:51.787Z
923008490,요가스튜디오명일,0502-5550-1210,서울 강동구 구천면로 424,37.550313886228714,127.14560221087308,"스포츠,레저 > 요가,필라테스 > 요가원",http://place.map.kakao.com/923008490,kakao,,,,2025-10-14T08:13:51.787Z,2025-10-14T08:13:51.787Z
1458518344,요가스튜디오숲,010-5949-4909,경기 평택시 용죽2로 65,36.9951060546231,127.127194238941,"스포츠,레저 > 요가,필라테스 > 요가원",http://place.map.kakao.com/1458518344,kakao,,,,2025-10-14T08:13:51.787Z,2025-10-14T08:13:51.787Z
2030346970,요가스튜디오 보라매점,02-2039-7277,서울 영등포구 신풍로 122,37.4997229564016,126.919756431569,"스포츠,레저 > 요가,필라테스 > 요가원",http://place.map.kakao.com/2030346970,kakao,,,,2025-10-14T08:13:51.787Z,2025-10-14T08:13:51.787Z
1548221479,요가중독스튜디오,02-445-1454,서울 강남구 밤고개로 227,37.474086990832106,127.10701364944505,"스포츠,레저 > 요가,필라테스 > 요가원",http://place.map.kakao.com/1548221479,kakao,,,,2025-10-14T08:13:51.787Z,2025-10-14T08:13:51.787Z
878114986,소하요가스튜디오,,광주 남구 용대로53번길 6,35.1212688789475,126.91711873849,"스포츠,레저 > 스포츠시설 > 헬스클럽",http://place.map.kakao.com/878114986,kakao,,,,2025-10-14T08:13:51.787Z,2025-10-14T08:13:51.787Z
887416558,솔요가스튜디오,0503-7150-7351,경기 오산시 수청로106번길 14,37.17744898925839,127.05425744645316,"스포츠,레저 > 요가,필라테스 > 요가원",http://place.map.kakao.com/887416558,kakao,,,,2025-10-14T08:13:51.787Z,2025-10-14T08:13:51.787Z
1650579681,요가스튜디오온유,0507-1369-7543,제주특별자치도 제주시 도남로 46,33.4961559940035,126.526670739344,"스포츠,레저 > 요가,필라테스 > 요가원",http://place.map.kakao.com/1650579681,kakao,,,,2025-10-14T08:13:51.787Z,2025-10-14T08:13:51.787Z
616882540,써니요가스튜디오,,서울 강남구 논현로157길 40,37.5217320866091,127.024936704767,"스포츠,레저 > 요가,필라테스",http://place.map.kakao.com/616882540,kakao,,,,2025-10-14T08:13:52.011Z,2025-10-14T08:13:52.011Z
235888289,김민아요가스튜디오,010-8345-4484,경기 오산시 문헌공로 9,37.1747156120932,127.051279395402,"스포츠,레저 > 요가,필라테스 > 요가원",http://place.map.kakao.com/235888289,kakao,,,,2025-10-14T08:13:52.011Z,2025-10-14T08:13:52.011Z
624351754,요가필라스튜디오,010-5687-2291,충남 당진시 남부로 258-57,36.8846686562371,126.643569342328,"스포츠,레저 > 요가,필라테스",http://place.map.kakao.com/624351754,kakao,,,,2025-10-14T08:13:52.011Z,2025-10-14T08:13:52.011Z
104503408,온요가스튜디오,010-9867-7740,서울 동대문구 답십리로 275,37.572639612692,127.07102693987,"스포츠,레저 > 요가,필라테스 > 요가원",http://place.map.kakao.com/104503408,kakao,,,,2025-10-14T08:13:52.011Z,2025-10-14T08:13:52.011Z
2080903929,요가스튜디오그르,,대구 중구 달구벌대로 2130-6,35.86448643807079,128.59666832145115,"스포츠,레저 > 요가,필라테스 > 요가원",http://place.map.kakao.com/2080903929,kakao,,,,2025-10-14T08:13:52.011Z,2025-10-14T08:13:52.011Z
1812444921,민요가스튜디오,02-577-5158,서울 강남구 언주로30길 10,37.487344732844626,127.05149684557867,"스포츠,레저 > 요가,필라테스 > 요가원",http://place.map.kakao.com/1812444921,kakao,,,,2025-10-14T08:13:52.011Z,2025-10-14T08:13:52.011Z
381263269,데이브 요가스튜디오,,경기 성남시 분당구 야탑로161번길 17,37.4113888298288,127.136878122069,"스포츠,레저 > 요가,필라테스",http://place.map.kakao.com/381263269,kakao,,,,2025-10-14T08:13:52.011Z,2025-10-14T08:13:52.011Z
741315868,SOL요가스튜디오,010-6291-3378,경기 수원시 권선구 매송고색로 545,37.2464819533704,126.964562952389,"스포츠,레저 > 요가,필라테스 > 요가원",http://place.map.kakao.com/741315868,kakao,,,,2025-10-14T08:13:52.011Z,2025-10-14T08:13:52.011Z
647429889,기리요가스튜디오,010-3799-5254,경기 안양시 동안구 평촌대로 118,37.3831280595563,126.960875344296,"스포츠,레저 > 요가,필라테스 > 요가원",http://place.map.kakao.com/647429889,kakao,,,,2025-10-14T08:13:52.011Z,2025-10-14T08:13:52.011Z
1216611716,디피카요가스튜디오,010-2592-0088,대구 동구 첨단로8길 1,35.8792172865546,128.730486268731,"스포츠,레저 > 요가,필라테스",http://place.map.kakao.com/1216611716,kakao,,,,2025-10-14T08:13:52.012Z,2025-10-14T08:13:52.012Z
1191798106,솔요가스튜디오 병점점,,경기 화성시 병점중앙로 102,37.2076438977985,127.041577557304,"스포츠,레저 > 요가,필라테스",http://place.map.kakao.com/1191798106,kakao,,,,2025-10-14T08:13:52.012Z,2025-10-14T08:13:52.012Z
2132725299,오옴요가스튜디오,0507-0177-2140,서울 성동구 왕십리로 354,37.5639614329557,127.030874941469,"스포츠,레저 > 요가,필라테스",http://place.map.kakao.com/2132725299,kakao,,,,2025-10-14T08:13:52.012Z,2025-10-14T08:13:52.012Z
1332633150,채운요가스튜디오,0503-7150-0881,서울 동대문구 한천로 212,37.5797084507586,127.068593977756,"스포츠,레저 > 요가,필라테스 > 요가원",http://place.map.kakao.com/1332633150,kakao,,,,2025-10-14T08:13:52.012Z,2025-10-14T08:13:52.012Z
1876649628,더303플라잉요가스튜디오,053-568-3303,대구 달서구 달구벌대로 1525,35.850108969115475,128.5340575443884,"스포츠,레저 > 요가,필라테스 > 요가원",http://place.map.kakao.com/1876649628,kakao,,,,2025-10-14T08:13:52.012Z,2025-10-14T08:13:52.012Z
274633761,주희요가스튜디오,,경기 과천시 관문로 92,37.42979167348194,126.99029468116811,"스포츠,레저 > 요가,필라테스 > 요가원",http://place.map.kakao.com/274633761,kakao,,,,2025-10-14T08:13:52.012Z,2025-10-14T08:13:52.012Z
1336856494,아쉬탕가 마이솔요가,053-255-6883,대구 중구 명덕로 227,35.8567136461567,128.595275936201,"스포츠,레저 > 요가,필라테스 > 요가원",http://place.map.kakao.com/1336856494,kakao,,,,2025-10-14T08:13:52.055Z,2025-10-14T08:13:56.486Z
16737734,아쉬탕가요가,02-6085-7730,서울 관악구 신림로 113,37.4706198496864,126.936658436116,"스포츠,레저 > 요가,필라테스 > 요가원",http://place.map.kakao.com/16737734,kakao,,,,2025-10-14T08:13:52.056Z,2025-10-14T08:13:56.486Z
1943331501,방배아쉬탕가사다나요가,02-522-0512,서울 서초구 방배천로20길 19,37.4840067181046,126.983944697519,"스포츠,레저 > 요가,필라테스 > 요가원",http://place.map.kakao.com/1943331501,kakao,,,,2025-10-14T08:13:52.056Z,2025-10-14T08:13:56.486Z
537220999,인천아쉬탕가,,인천 연수구 송도과학로27번길 55,37.387385183092825,126.66379513064612,"스포츠,레저 > 요가,필라테스 > 요가원",http://place.map.kakao.com/537220999,kakao,,,,2025-10-14T08:13:52.056Z,2025-10-14T08:13:56.745Z
431073260,요가늘아쉬탕가,042-826-9922,대전 유성구 계룡로74번길 32,36.3531846513142,127.338413178674,"스포츠,레저 > 요가,필라테스 > 요가원",http://place.map.kakao.com/431073260,kakao,,,,2025-10-14T08:13:52.056Z,2025-10-14T08:13:56.745Z
1287457768,아쉬탕가 요가다르마,010-2978-0827,경기 남양주시 다산중앙로146번길 12-10,37.625154796743196,127.15410464883554,"스포츠,레저 > 요가,필라테스 > 요가원",http://place.map.kakao.com/1287457768,kakao,,,,2025-10-14T08:13:52.056Z,2025-10-14T08:13:56.487Z
572235700,아쉬탕가요가,031-712-7714,경기 성남시 분당구 수내로46번길 33,37.3787094311703,127.115124724667,"스포츠,레저 > 요가,필라테스",http://place.map.kakao.com/572235700,kakao,,,,2025-10-14T08:13:52.056Z,2025-10-14T08:13:56.745Z
331305578,부천아쉬탕가요가,010-2891-3578,경기 부천시 원미구 소향로 35,37.503831903514,126.751606512232,"스포츠,레저 > 요가,필라테스 > 요가원",http://place.map.kakao.com/331305578,kakao,,,,2025-10-14T08:13:52.056Z,2025-10-14T08:13:56.487Z
8632456,아쉬탕가 프라나요가,02-488-0602,서울 송파구 올림픽로47길 19,37.528340878536426,127.11669604289072,"스포츠,레저 > 요가,필라테스 > 요가원",http://place.map.kakao.com/8632456,kakao,,,,2025-10-14T08:13:52.056Z,2025-10-14T08:13:56.487Z
12363873,아쉬탕가요가다원,0502-5550-8387,서울 노원구 수락산로 190,37.671152032393366,127.05727743419561,"스포츠,레저 > 요가,필라테스 > 요가원",http://place.map.kakao.com/12363873,kakao,,,,2025-10-14T08:13:52.056Z,2025-10-14T08:13:56.487Z
459544813,아쉬탕가요가진주,055-746-8987,경남 진주시 진양호로185번길 10,35.1721685332,128.058140455173,"스포츠,레저 > 요가,필라테스 > 요가원",http://place.map.kakao.com/459544813,kakao,,,,2025-10-14T08:13:52.056Z,2025-10-14T08:13:56.487Z
1511452865,힐링&아쉬탕가요가,,경기 광주시 고불로 43-1,37.393161281194864,127.23302300853024,"스포츠,레저 > 요가,필라테스 > 요가원",http://place.map.kakao.com/1511452865,kakao,,,,2025-10-14T08:13:52.056Z,2025-10-14T08:13:56.487Z
1075921314,아쉬탕가요가 청주점,043-285-0111,충북 청주시 상당구 중흥로 153,36.617376406364,127.51047421997,"스포츠,레저 > 요가,필라테스 > 요가원",http://place.map.kakao.com/1075921314,kakao,,,,2025-10-14T08:13:52.056Z,2025-10-14T08:13:56.487Z
355086616,인천아쉬탕가요가 아디티,010-4475-1444,인천 중구 신포로35번길 38,37.4730731221303,126.623976994964,"스포츠,레저 > 요가,필라테스 > 요가원",http://place.map.kakao.com/355086616,kakao,,,,2025-10-14T08:13:52.288Z,2025-10-14T08:13:56.487Z
1269980137,아쉬탕가프라나요가,064-744-4399,제주특별자치도 제주시 도평길 80,33.4789191469687,126.452009682428,"스포츠,레저 > 요가,필라테스 > 요가원",http://place.map.kakao.com/1269980137,kakao,,,,2025-10-14T08:13:52.288Z,2025-10-14T08:13:56.487Z
654046272,아쉬탕가월곡요가원,010-3659-9057,서울 성북구 월곡로14길 24,37.59975283092568,127.04154791486775,"스포츠,레저 > 요가,필라테스",http://place.map.kakao.com/654046272,kakao,,,,2025-10-14T08:13:52.288Z,2025-10-14T08:13:52.288Z
1997808567,아쉬탕가요가춘천,0507-1332-4539,강원특별자치도 춘천시 춘천로 94,37.8721573934109,127.726689526872,"스포츠,레저 > 요가,필라테스 > 요가원",http://place.map.kakao.com/1997808567,kakao,,,,2025-10-14T08:13:52.288Z,2025-10-14T08:13:56.487Z
168733809,위례아쉬탕가요가,010-4093-6375,경기 성남시 수정구 위례광장로 320,37.47217986483378,127.14255310304071,"스포츠,레저 > 요가,필라테스 > 요가원",http://place.map.kakao.com/168733809,kakao,,,,2025-10-14T08:13:52.288Z,2025-10-14T08:13:56.744Z
1015858976,세영아쉬탕가요가,010-3030-9331,경기 의정부시 용민로 483,37.7505581317357,127.118217414029,"스포츠,레저 > 요가,필라테스",http://place.map.kakao.com/1015858976,kakao,,,,2025-10-14T08:13:52.288Z,2025-10-14T08:13:56.745Z
546066105,아쉬탕가요가싯다람,,서울 도봉구 해등로16길 7,37.6564062002226,127.040857573819,"스포츠,레저 > 요가,필라테스 > 요가원",http://place.map.kakao.com/546066105,kakao,,,,2025-10-14T08:13:52.288Z,2025-10-14T08:13:56.744Z
640049113,아쉬탕가마르가요가원,010-5517-2866,경기 하남시 미사강변동로 127,37.566176017019,127.191041295145,"스포츠,레저 > 요가,필라테스 > 요가원",http://place.map.kakao.com/640049113,kakao,,,,2025-10-14T08:13:52.288Z,2025-10-14T08:13:56.745Z
1682112472,쌍문아쉬탕가요가,,서울 도봉구 해등로 200,37.658276856055,127.034539359471,"스포츠,레저 > 요가,필라테스 > 요가원",http://place.map.kakao.com/1682112472,kakao,,,,2025-10-14T08:13:52.288Z,2025-10-14T08:13:56.744Z
1788888636,일산아쉬탕가,031-921-1103,경기 고양시 일산서구 중앙로 1415,37.66917353514486,126.76250665120018,"스포츠,레저 > 요가,필라테스",http://place.map.kakao.com/1788888636,kakao,,,,2025-10-14T08:13:52.288Z,2025-10-14T08:13:56.976Z
1192354891,아쉬탕가 살린요가 본점,031-234-1533,경기 수원시 팔달구 권광로 146,37.2604770844171,127.031844117719,"스포츠,레저 > 요가,필라테스",http://place.map.kakao.com/1192354891,kakao,,,,2025-10-14T08:13:52.288Z,2025-10-14T08:13:52.288Z
898255956,아쉬탕가요가 일산,031-922-8259,경기 고양시 일산서구 주엽로 134,37.67070978619323,126.75811405771375,"스포츠,레저 > 요가,필라테스 > 요가원",http://place.map.kakao.com/898255956,kakao,,,,2025-10-14T08:13:52.288Z,2025-10-14T08:13:56.744Z
917759705,하리 아쉬탕가 요가,032-548-0038,인천 계양구 계양대로 96,37.53238913547902,126.72285619206286,"스포츠,레저 > 요가,필라테스",http://place.map.kakao.com/917759705,kakao,,,,2025-10-14T08:13:52.288Z,2025-10-14T08:13:56.745Z
620482102,큐어요가x아쉬탕가요가 센,0507-1426-3888,강원특별자치도 원주시 혁신로 35,37.32428276928006,127.97813929812338,"스포츠,레저 > 요가,필라테스 > 요가원",http://place.map.kakao.com/620482102,kakao,,,,2025-10-14T08:13:52.288Z,2025-10-14T08:13:56.744Z
464032230,아쉬탕가제니요가 호평2호점,,경기 남양주시 늘을1로 284,37.65589030419643,127.25522611779688,"스포츠,레저 > 요가,필라테스 > 요가원",http://place.map.kakao.com/464032230,kakao,,,,2025-10-14T08:13:52.288Z,2025-10-14T08:13:56.745Z
426478428,아쉬탕가살린요가 수원영통점,031-202-0550,경기 수원시 영통구 봉영로 1612,37.2544567030489,127.074941790865,"스포츠,레저 > 요가,필라테스",http://place.map.kakao.com/426478428,kakao,,,,2025-10-14T08:13:52.519Z,2025-10-14T08:13:52.519Z
1224154814,요가브이앤에이 왕십리,02-464-5951,서울 성동구 고산자로 284,37.5648472416127,127.036718049544,"스포츠,레저 > 요가,필라테스",http://place.map.kakao.com/1224154814,kakao,,,,2025-10-14T08:13:52.519Z,2025-10-14T08:13:52.569Z
1886267922,가야뜨리 요가,0503-7150-7003,서울 마포구 신촌로2안길 20,37.5572410846722,126.928136594629,"스포츠,레저 > 요가,필라테스 > 요가원",http://place.map.kakao.com/1886267922,kakao,,,,2025-10-14T08:13:52.519Z,2025-10-14T08:13:52.519Z
11627153,요가인디아,051-582-7005,부산 금정구 금정로233번길 85,35.2484393612046,129.091089554288,"스포츠,레저 > 요가,필라테스 > 요가원",http://place.map.kakao.com/11627153,kakao,,,,2025-10-14T08:13:52.520Z,2025-10-14T08:13:52.520Z
1731309054,로카히요가,010-3633-8685,부산 사하구 낙동대로451번안길 23,35.1046714479539,128.967949675033,"스포츠,레저 > 요가,필라테스 > 요가원",http://place.map.kakao.com/1731309054,kakao,,,,2025-10-14T08:13:52.520Z,2025-10-14T08:13:52.520Z
1943015309,두요가,010-2805-0717,서울 관악구 남부순환로 1713-7,37.4833920432161,126.940876270198,"스포츠,레저 > 요가,필라테스 > 요가원",http://place.map.kakao.com/1943015309,kakao,,,,2025-10-14T08:13:52.520Z,2025-10-14T08:13:52.520Z
1893052778,한결같이요가원,0507-1334-1860,경기 성남시 수정구 성남대로1263번길 11,37.4422818016117,127.125688354983,"스포츠,레저 > 요가,필라테스 > 요가원",http://place.map.kakao.com/1893052778,kakao,,,,2025-10-14T08:13:52.520Z,2025-10-14T08:13:52.569Z
353745383,이숨요가,02-409-3053,서울 송파구 송파대로 345,37.4995037755568,127.11160399767,"스포츠,레저 > 요가,필라테스 > 요가원",http://place.map.kakao.com/353745383,kakao,,,,2025-10-14T08:13:52.520Z,2025-10-14T08:13:52.520Z
1821042782,복샘요가,010-2223-2789,서울 마포구 토정로 195,37.5455163789001,126.932693420959,"스포츠,레저 > 요가,필라테스 > 요가원",http://place.map.kakao.com/1821042782,kakao,,,,2025-10-14T08:13:52.520Z,2025-10-14T08:13:52.520Z
1009302989,루아테라피월 yoga studio,010-9726-1243,경기 용인시 기흥구 강남서로 18,37.2727852828809,127.127155894879,"스포츠,레저 > 요가,필라테스 > 요가원",http://place.map.kakao.com/1009302989,kakao,,,,2025-10-14T08:13:52.520Z,2025-10-14T08:13:52.520Z
1709919885,소울플로우요가,010-9304-0605,서울 양천구 목동중앙북로8길 10,37.5479052156919,126.866331998466,"스포츠,레저 > 요가,필라테스",http://place.map.kakao.com/1709919885,kakao,,,,2025-10-14T08:13:52.520Z,2025-10-14T08:13:52.520Z
1618972338,어스요가,010-4681-1626,경기 의정부시 추동로91번길 15,37.748043228108344,127.06375428198047,"스포츠,레저 > 요가,필라테스 > 요가원",http://place.map.kakao.com/1618972338,kakao,,,,2025-10-14T08:13:52.520Z,2025-10-14T08:13:56.207Z
1278462159,디파마요가,0503-7152-1820,서울 영등포구 선유로 76,37.5206490571666,126.889906350659,"스포츠,레저 > 요가,필라테스 > 요가원",http://place.map.kakao.com/1278462159,kakao,,,,2025-10-14T08:13:52.520Z,2025-10-14T08:13:52.570Z
1318265804,요가단,0503-7152-3778,경기 고양시 덕양구 지축로 74,37.64902062200547,126.91611616590754,"스포츠,레저 > 요가,필라테스",http://place.map.kakao.com/1318265804,kakao,,,,2025-10-14T08:13:52.520Z,2025-10-14T08:13:52.520Z
1899222343,고요가,010-6461-1561,부산 부산진구 가야대로 785,35.15792090774426,129.05755900359372,"스포츠,레저 > 요가,필라테스",http://place.map.kakao.com/1899222343,kakao,,,,2025-10-14T08:13:52.520Z,2025-10-14T08:13:52.520Z
17809398,가이아 빈야사 요가,051-758-9323,부산 남구 용소로7번길 21,35.137221644012776,129.101365183802,"스포츠,레저 > 요가,필라테스 > 요가원",http://place.map.kakao.com/17809398,kakao,,,,2025-10-14T08:13:52.568Z,2025-10-14T08:13:52.569Z
20548957,빈야사요가,02-848-8747,서울 영등포구 도신로 38,37.5046106016459,126.89725403736,"스포츠,레저 > 요가,필라테스 > 요가원",http://place.map.kakao.com/20548957,kakao,,,,2025-10-14T08:13:52.569Z,2025-10-14T08:13:52.569Z
13643275,빈야사요가원,,충남 보령시 명천중앙길 14,36.3439340786562,126.601656561158,"스포츠,레저 > 요가,필라테스 > 요가원",http://place.map.kakao.com/13643275,kakao,,,,2025-10-14T08:13:52.569Z,2025-10-14T08:13:52.569Z
27449434,빈야사요가원,,충남 보령시 동현로 3,36.3523053937016,126.60856566507744,"가정,생활 > 미용 > 체형관리 > 다이어트,비만 > 단식원",http://place.map.kakao.com/27449434,kakao,,,,2025-10-14T08:13:52.569Z,2025-10-14T08:13:52.569Z
2006196936,플라잉필라테스빈야사요가,,울산 남구 번영로 109,35.5350904088655,129.328539808274,"스포츠,레저 > 요가,필라테스",http://place.map.kakao.com/2006196936,kakao,,,,2025-10-14T08:13:52.569Z,2025-10-14T08:13:52.569Z
8118356,가이아요가,02-822-8332,서울 동대문구 천장산로4길 48,37.59903688790687,127.05784718726352,"스포츠,레저 > 요가,필라테스 > 요가원",http://place.map.kakao.com/8118356,kakao,,,,2025-10-14T08:13:52.569Z,2025-10-14T08:13:52.569Z
172644964,아샤요가,010-4223-0633,경북 구미시 봉곡로17길 28-9,36.15226335859471,128.3075309016397,"스포츠,레저 > 요가,필라테스 > 요가원",http://place.map.kakao.com/172644964,kakao,,,,2025-10-14T08:13:52.569Z,2025-10-14T08:13:52.569Z
1757893368,아우라요가&필라테스,0502-5550-8849,서울 마포구 독막로 35,37.5483124401938,126.917484124059,"스포츠,레저 > 요가,필라테스 > 요가원",http://place.map.kakao.com/1757893368,kakao,,,,2025-10-14T08:13:52.569Z,2025-10-14T08:13:55.114Z
11654667,더핫요가 반포자이점,02-599-5533,서울 서초구 잠원로 24,37.5071272337299,127.009839732367,"스포츠,레저 > 요가,필라테스 > 요가원",http://place.map.kakao.com/11654667,kakao,,,,2025-10-14T08:13:52.569Z,2025-10-14T08:13:52.569Z
123596916,요가품,02-877-3860,서울 관악구 남부순환로 1937,37.4769187934928,126.964670365722,"스포츠,레저 > 요가,필라테스 > 요가원",http://place.map.kakao.com/123596916,kakao,,,,2025-10-14T08:13:52.569Z,2025-10-14T08:13:52.569Z
101492732,븨요가스튜디오,0507-1333-8238,경기 성남시 분당구 성남대로331번길 3-9,37.3648460469233,127.107694805754,"스포츠,레저 > 요가,필라테스",http://place.map.kakao.com/101492732,kakao,,,,2025-10-14T08:13:52.570Z,2025-10-14T08:13:52.570Z
1171229249,요가 봄,0502-5552-1926,인천 연수구 컨벤시아대로 69,37.39552809159661,126.65057057114264,"스포츠,레저 > 스포츠시설",http://place.map.kakao.com/1171229249,kakao,,,,2025-10-14T08:13:52.570Z,2025-10-14T08:13:52.570Z
412972171,로라요가,031-213-2690,경기 수원시 영통구 센트럴파크로128번길 62,37.2957729304146,127.057335578571,"스포츠,레저 > 요가,필라테스",http://place.map.kakao.com/412972171,kakao,,,,2025-10-14T08:13:52.793Z,2025-10-14T08:13:52.793Z
1785774999,정정희 메디요가&필라테스,010-5375-4178,울산 남구 대공원입구로21번길 6,35.5340088678326,129.293871591981,"스포츠,레저 > 요가,필라테스",http://place.map.kakao.com/1785774999,kakao,,,,2025-10-14T08:13:52.794Z,2025-10-14T08:13:52.794Z
15677742,하타요가,051-326-0262,부산 사상구 학감대로 109-14,35.1405194629705,128.987995001017,"스포츠,레저 > 요가,필라테스 > 요가원",http://place.map.kakao.com/15677742,kakao,,,,2025-10-14T08:13:52.840Z,2025-10-14T08:13:52.840Z
821919634,하타요가,055-351-1217,경남 밀양시 밀양대로 1770-1,35.4836811586856,128.752408889266,"스포츠,레저 > 요가,필라테스 > 요가원",http://place.map.kakao.com/821919634,kakao,,,,2025-10-14T08:13:52.840Z,2025-10-14T08:13:52.840Z
23279142,하타요가,053-852-6668,경북 경산시 하양읍 하양역길 22,35.9112256603583,128.816447392619,"스포츠,레저 > 요가,필라테스 > 요가원",http://place.map.kakao.com/23279142,kakao,,,,2025-10-14T08:13:52.840Z,2025-10-14T08:13:52.840Z
2051397243,목동하타요가,02-2648-8992,서울 양천구 오목로56길 10,37.5237106502681,126.873688728422,"스포츠,레저 > 요가,필라테스 > 요가원",http://place.map.kakao.com/2051397243,kakao,,,,2025-10-14T08:13:52.840Z,2025-10-14T08:13:52.840Z
2048761783,인천하타요가,010-2437-4752,인천 연수구 첨단대로 40,37.3700258961742,126.650354721444,"스포츠,레저 > 요가,필라테스 > 요가원",http://place.map.kakao.com/2048761783,kakao,,,,2025-10-14T08:13:52.840Z,2025-10-14T08:13:52.840Z
275049033,라자하타요가,053-322-6252,대구 북구 구암로 143,35.93202450551416,128.5565050451077,"스포츠,레저 > 요가,필라테스 > 요가원",http://place.map.kakao.com/275049033,kakao,,,,2025-10-14T08:13:52.840Z,2025-10-14T08:13:52.840Z
1942545326,밤섬하타요가,0503-7152-3894,서울 마포구 토정로 159,37.54578700285456,126.92864209505645,"스포츠,레저 > 요가,필라테스 > 요가원",http://place.map.kakao.com/1942545326,kakao,,,,2025-10-14T08:13:52.840Z,2025-10-14T08:13:52.840Z
711111339,연동하타요가,010-4462-8528,제주특별자치도 제주시 국기로 21,33.4797881890374,126.490011349499,"스포츠,레저 > 요가,필라테스 > 요가원",http://place.map.kakao.com/711111339,kakao,,,,2025-10-14T08:13:52.840Z,2025-10-14T08:13:52.840Z
1886555549,목포하타요가,010-2735-5953,전남 목포시 유동로36번길 9,34.7849953668347,126.381650880652,"스포츠,레저 > 요가,필라테스 > 요가원",http://place.map.kakao.com/1886555549,kakao,,,,2025-10-14T08:13:52.840Z,2025-10-14T08:13:52.840Z
396421740,외도하타요가,064-745-2280,제주특별자치도 제주시 우정로11길 4,33.4876672903663,126.431398832829,"스포츠,레저 > 요가,필라테스 > 요가원",http://place.map.kakao.com/396421740,kakao,,,,2025-10-14T08:13:52.840Z,2025-10-14T08:13:52.840Z
2020666121,사직동하타요가,,서울 종로구 사직로6길 23,37.5722550703474,126.965757367228,"스포츠,레저 > 요가,필라테스 > 요가원",http://place.map.kakao.com/2020666121,kakao,,,,2025-10-14T08:13:52.840Z,2025-10-14T08:13:52.840Z
865312194,청주하타요가,010-5263-9519,충북 청주시 흥덕구 청향로34번길 19,36.6386599520763,127.418801784848,"스포츠,레저 > 요가,필라테스 > 요가원",http://place.map.kakao.com/865312194,kakao,,,,2025-10-14T08:13:52.840Z,2025-10-14T08:13:52.840Z
1406231422,함덕하타요가,0502-5553-1800,제주특별자치도 제주시 조천읍 신북로 185,33.534971163784945,126.63293266937157,"스포츠,레저 > 요가,필라테스 > 요가원",http://place.map.kakao.com/1406231422,kakao,,,,2025-10-14T08:13:52.841Z,2025-10-14T08:13:52.841Z
1626596724,아라하타요가,0503-7150-1303,인천 서구 이음5로 30,37.5937992414713,126.710909195024,"스포츠,레저 > 요가,필라테스 > 요가원",http://place.map.kakao.com/1626596724,kakao,,,,2025-10-14T08:13:52.841Z,2025-10-14T08:13:52.841Z
1570214980,아디티 하타요가,010-3287-3107,경기 안성시 공도읍 공도로 140,37.0019104262464,127.175689144263,"스포츠,레저 > 요가,필라테스 > 요가원",http://place.map.kakao.com/1570214980,kakao,,,,2025-10-14T08:13:52.841Z,2025-10-14T08:13:52.841Z
802207916,이애숙 하타요가,010-7361-1300,경기 오산시 성호대로 104,37.1486330799336,127.072905639363,"스포츠,레저 > 요가,필라테스 > 요가원",http://place.map.kakao.com/802207916,kakao,,,,2025-10-14T08:13:53.075Z,2025-10-14T08:13:53.075Z
2048002491,해운대하타요가,,부산 해운대구 해운대로 575,35.1614371381411,129.154412171062,"스포츠,레저 > 요가,필라테스 > 요가원",http://place.map.kakao.com/2048002491,kakao,,,,2025-10-14T08:13:53.076Z,2025-10-14T08:13:53.076Z
336609375,한수풀하타요가,0502-5551-5856,제주특별자치도 제주시 한림읍 옹포남4길 8-5,33.39740098538573,126.25803033369014,"스포츠,레저 > 요가,필라테스 > 요가원",http://place.map.kakao.com/336609375,kakao,,,,2025-10-14T08:13:53.076Z,2025-10-14T08:13:53.076Z
368070206,하타요가 한국요가연수원 양천수련원,010-9011-2163,서울 양천구 중앙로32길 55,37.519888808043156,126.8595145041608,"스포츠,레저 > 요가,필라테스 > 요가원",http://place.map.kakao.com/368070206,kakao,,,,2025-10-14T08:13:53.076Z,2025-10-14T08:13:53.076Z
322566981,사마디하타요가,010-9911-7044,대구 북구 내곡로 75,35.90165875363166,128.5117192935988,"스포츠,레저 > 요가,필라테스 > 요가원",http://place.map.kakao.com/322566981,kakao,,,,2025-10-14T08:13:53.076Z,2025-10-14T08:13:53.076Z
1917933459,조르다하타요가,0507-1379-5598,경북 경산시 하양읍 하양로 188,35.9173396209104,128.826129480335,"스포츠,레저 > 요가,필라테스 > 요가원",http://place.map.kakao.com/1917933459,kakao,,,,2025-10-14T08:13:53.076Z,2025-10-14T08:13:53.076Z
535628189,es하타요가,010-9744-0391,강원특별자치도 강릉시 용지로96번길 4-1,37.758856755508,128.906463054301,"스포츠,레저 > 요가,필라테스 > 요가원",http://place.map.kakao.com/535628189,kakao,,,,2025-10-14T08:13:53.076Z,2025-10-14T08:13:53.076Z
52513106,속초하타요가,010-5579-2731,강원특별자치도 속초시 엑스포로 27,38.19104170276404,128.58821941828,"스포츠,레저 > 요가,필라테스 > 요가원",http://place.map.kakao.com/52513106,kakao,,,,2025-10-14T08:13:53.076Z,2025-10-14T08:13:53.076Z
507465176,청라하타요가,,인천 서구 크리스탈로74번길 7-21,37.5325673567135,126.638782448832,"스포츠,레저 > 요가,필라테스 > 요가원",http://place.map.kakao.com/507465176,kakao,,,,2025-10-14T08:13:53.076Z,2025-10-14T08:13:53.076Z
817242376,하타요가진주,010-9029-9382,경남 진주시 강남로167번길 28,35.1824860059708,128.092924341853,"스포츠,레저 > 요가,필라테스 > 요가원",http://place.map.kakao.com/817242376,kakao,,,,2025-10-14T08:13:53.076Z,2025-10-14T08:13:53.076Z
136757724,목감하타요가,010-3292-5633,경기 시흥시 남왕길 40,37.3828133330138,126.86190694766,"스포츠,레저 > 요가,필라테스 > 요가원",http://place.map.kakao.com/136757724,kakao,,,,2025-10-14T08:13:53.076Z,2025-10-14T08:13:53.076Z
406890836,하타요가 안 개롱역점,0507-1423-3837,서울 송파구 오금로46길 8,37.4966319030782,127.136024839066,"스포츠,레저 > 요가,필라테스 > 요가원",http://place.map.kakao.com/406890836,kakao,,,,2025-10-14T08:13:53.076Z,2025-10-14T08:13:53.076Z
1243681696,하타요가안 송파나루역점,0505-201-0505,서울 송파구 백제고분로 411,37.50789698312815,127.11027737042278,"스포츠,레저 > 요가,필라테스 > 요가원",http://place.map.kakao.com/1243681696,kakao,,,,2025-10-14T08:13:53.076Z,2025-10-14T08:13:53.076Z
425769577,수원하타요가,010-9694-5272,경기 수원시 영통구 청명로 79,37.2538506379801,127.078591084272,"스포츠,레저 > 요가,필라테스",http://place.map.kakao.com/425769577,kakao,,,,2025-10-14T08:13:53.076Z,2025-10-14T08:13:53.076Z
997387069,창원하타요가,010-6771-1077,경남 창원시 의창구 평산로159번길 37,35.2554260746934,128.620083307228,"스포츠,레저 > 요가,필라테스",http://place.map.kakao.com/997387069,kakao,,,,2025-10-14T08:13:53.076Z,2025-10-14T08:13:53.076Z
1976518160,일산하타요가,,경기 고양시 일산동구 경의로 309,37.6574452580852,126.793502897897,"스포츠,레저 > 요가,필라테스",http://place.map.kakao.com/1976518160,kakao,,,,2025-10-14T08:13:53.326Z,2025-10-14T08:13:53.326Z
1963945541,김포하타요가,010-2704-5688,경기 김포시 김포한강7로22번길 186,37.6431184587919,126.639917934672,"스포츠,레저 > 요가,필라테스",http://place.map.kakao.com/1963945541,kakao,,,,2025-10-14T08:13:53.326Z,2025-10-14T08:13:53.326Z
2118825815,올리브하타요가앤필라테스,,대구 수성구 만촌로 158,35.8726598700726,128.640790576857,"스포츠,레저 > 요가,필라테스",http://place.map.kakao.com/2118825815,kakao,,,,2025-10-14T08:13:53.326Z,2025-10-14T08:13:53.326Z
1784826660,표선하타요가,,제주특별자치도 서귀포시 표선면 표선중앙로80번길 2,33.3261913329767,126.832294525424,"스포츠,레저 > 스포츠시설 > 헬스클럽",http://place.map.kakao.com/1784826660,kakao,,,,2025-10-14T08:13:53.326Z,2025-10-14T08:13:53.326Z
988392361,나디하타요가,,전남 순천시 가곡1길 7,34.979681353710085,127.48391485265618,"스포츠,레저 > 요가,필라테스",http://place.map.kakao.com/988392361,kakao,,,,2025-10-14T08:13:53.326Z,2025-10-14T08:13:53.326Z
830702131,락슈미하타요가,,부산 영도구 동삼동로 11,35.081220187268265,129.07182358212884,"스포츠,레저 > 요가,필라테스",http://place.map.kakao.com/830702131,kakao,,,,2025-10-14T08:13:53.326Z,2025-10-14T08:13:53.326Z
95190508,하타요가아쉬람 동해택견전수관,033-522-1118,강원특별자치도 동해시 한섬로 18,37.5196041741075,129.105771349489,"스포츠,레저 > 무예 > 택견",http://place.map.kakao.com/95190508,kakao,,,,2025-10-14T08:13:53.326Z,2025-10-14T08:13:53.326Z
384135703,바루나요가,010-2585-9304,경기 고양시 일산동구 중산로 105,37.68132813264908,126.78135663235044,"스포츠,레저 > 요가,필라테스 > 요가원",http://place.map.kakao.com/384135703,kakao,,,,2025-10-14T08:13:53.326Z,2025-10-14T08:13:53.326Z
12082721,요가문화원,02-741-0079,서울 종로구 계동길 5,37.57738500917657,126.98637672342028,"스포츠,레저 > 요가,필라테스 > 요가원",http://place.map.kakao.com/12082721,kakao,,,,2025-10-14T08:13:53.326Z,2025-10-14T08:13:53.326Z
1446927668,요가다락,0507-1356-4215,서울 송파구 송이로 79,37.49890607144348,127.12021249078813,"스포츠,레저 > 요가,필라테스 > 요가원",http://place.map.kakao.com/1446927668,kakao,,,,2025-10-14T08:13:53.326Z,2025-10-14T08:13:53.326Z
1913269933,스와라요가,02-416-9717,서울 송파구 오금로 202,37.50783018130466,127.1160533593784,"스포츠,레저 > 요가,필라테스 > 요가원",http://place.map.kakao.com/1913269933,kakao,,,,2025-10-14T08:13:53.326Z,2025-10-14T08:13:53.326Z
179158578,요가해,0502-5552-3729,서울 강남구 영동대로 221,37.4986574727937,127.068117178825,"스포츠,레저 > 요가,필라테스 > 요가원",http://place.map.kakao.com/179158578,kakao,,,,2025-10-14T08:13:53.326Z,2025-10-14T08:13:53.326Z
345984713,비로소요가,010-9402-4648,충남 천안시 동남구 버들로 119,36.8066150905775,127.159675480621,"스포츠,레저 > 요가,필라테스 > 요가원",http://place.map.kakao.com/345984713,kakao,,,,2025-10-14T08:13:53.326Z,2025-10-14T08:13:53.326Z
119327561,언와인드요가 마포,010-4512-5037,서울 마포구 마포대로1길 45,37.5414425201071,126.940247727496,"스포츠,레저 > 요가,필라테스 > 요가원",http://place.map.kakao.com/119327561,kakao,,,,2025-10-14T08:13:53.326Z,2025-10-14T08:13:53.326Z
1308389436,아힘사요가&명상 신용산점,010-3291-0226,서울 용산구 새창로 217,37.5301889245363,126.967751947403,"스포츠,레저 > 명상",http://place.map.kakao.com/1308389436,kakao,,,,2025-10-14T08:13:53.365Z,2025-10-14T08:13:53.365Z
2121495173,금빛요가명상센터,0507-1338-0886,서울 마포구 백범로 205,37.54315680501207,126.95357033294177,"스포츠,레저 > 명상",http://place.map.kakao.com/2121495173,kakao,,,,2025-10-14T08:13:53.365Z,2025-10-14T08:13:54.326Z
1139379243,진기요가진기명상 숭산단전호흡,053-652-8889,대구 남구 대명로 39,35.83889015603346,128.56199086666115,"스포츠,레저 > 명상 > 단전호흡",http://place.map.kakao.com/1139379243,kakao,,,,2025-10-14T08:13:53.365Z,2025-10-14T08:13:53.365Z
949197183,진기요가 진기명상 숭산단전호흡 청주지원,043-902-8889,충북 청주시 흥덕구 장구봉로 18,36.6208815171537,127.436136102741,"스포츠,레저 > 명상 > 단전호흡",http://place.map.kakao.com/949197183,kakao,,,,2025-10-14T08:13:53.366Z,2025-10-14T08:13:53.366Z
25804555,박자방요가명상센터,031-772-7055,경기 양평군 양평읍 시민로 117,37.49077535307239,127.50479088613024,"스포츠,레저 > 명상 > 단전호흡",http://place.map.kakao.com/25804555,kakao,,,,2025-10-14T08:13:53.366Z,2025-10-14T08:13:53.366Z
1860145389,진기요가 진기명상 숭산단전호흡 예산지원,010-5325-9745,충남 예산군 예산읍 충서로 1247-8,36.7194508645151,126.83178987286,"스포츠,레저 > 명상 > 단전호흡",http://place.map.kakao.com/1860145389,kakao,,,,2025-10-14T08:13:53.366Z,2025-10-14T08:13:53.366Z
1065524468,요가명상 고요,010-6698-5665,제주특별자치도 제주시 승천로 64,33.4928289476865,126.541980765411,"스포츠,레저 > 요가,필라테스 > 요가원",http://place.map.kakao.com/1065524468,kakao,,,,2025-10-14T08:13:53.366Z,2025-10-14T08:13:53.366Z
165414136,미소요가명상,010-3071-5141,서울 강동구 천호옛길 58,37.53420161764756,127.12403446000907,"스포츠,레저 > 요가,필라테스 > 요가원",http://place.map.kakao.com/165414136,kakao,,,,2025-10-14T08:13:53.366Z,2025-10-14T08:13:53.366Z
339959782,무진요가명상,010-5904-4108,경남 김해시 주촌면 천곡로145번길 13,35.2271874509234,128.842726313118,"스포츠,레저 > 요가,필라테스 > 요가원",http://place.map.kakao.com/339959782,kakao,,,,2025-10-14T08:13:53.366Z,2025-10-14T08:13:53.366Z
832863565,마유라 요가명상,010-4758-4177,서울 송파구 가락로21길 14,37.50356335248947,127.1110230774284,"스포츠,레저 > 요가,필라테스 > 요가원",http://place.map.kakao.com/832863565,kakao,,,,2025-10-14T08:13:53.366Z,2025-10-14T08:13:53.366Z
22455283,리탐빌요가명상,02-3448-9901,서울 용산구 회나무로44길 2,37.540742192376406,126.99652399733236,"스포츠,레저 > 요가,필라테스 > 요가원",http://place.map.kakao.com/22455283,kakao,,,,2025-10-14T08:13:53.366Z,2025-10-14T08:13:53.366Z
1520197842,쿠르마요가&명상,0503-7152-9821,서울 서초구 마방로6길 8-30,37.4740716461403,127.040788634968,"스포츠,레저 > 요가,필라테스 > 요가원",http://place.map.kakao.com/1520197842,kakao,,,,2025-10-14T08:13:53.366Z,2025-10-14T08:13:53.366Z
13337439,아난다요가명상,010-7439-0034,서울 성북구 길음로 11,37.603678941352484,127.02336839171566,"스포츠,레저 > 요가,필라테스 > 요가원",http://place.map.kakao.com/13337439,kakao,,,,2025-10-14T08:13:53.366Z,2025-10-14T08:13:53.366Z
1642164733,스윗요가명상,010-2284-8758,경기 남양주시 다산중앙로19번길 9,37.6145964662568,127.154537041308,"스포츠,레저 > 요가,필라테스 > 요가원",http://place.map.kakao.com/1642164733,kakao,,,,2025-10-14T08:13:53.598Z,2025-10-14T08:13:53.598Z
736193251,아트마힐링요가명상,0507-1417-2378,경기 성남시 분당구 판교로 437,37.4057282452533,127.122435366645,"스포츠,레저 > 요가,필라테스 > 요가원",http://place.map.kakao.com/736193251,kakao,,,,2025-10-14T08:13:53.599Z,2025-10-14T08:13:53.599Z
1157156689,아누샤요가명상,02-2233-0223,서울 성동구 금호로 105,37.552523002617555,127.02432566277379,"스포츠,레저 > 요가,필라테스 > 요가원",http://place.map.kakao.com/1157156689,kakao,,,,2025-10-14T08:13:53.599Z,2025-10-14T08:13:53.599Z
319354628,차크라요가명상센터,033-644-2137,강원특별자치도 강릉시 경강로2323번길 13,37.76951412702794,128.91426859613543,"스포츠,레저 > 요가,필라테스 > 요가원",http://place.map.kakao.com/319354628,kakao,,,,2025-10-14T08:13:53.599Z,2025-10-14T08:13:53.875Z
536625020,치유요가명상,010-2905-3036,경기 고양시 덕양구 향기로 115,37.6000537061153,126.893652097254,"스포츠,레저 > 요가,필라테스 > 요가원",http://place.map.kakao.com/536625020,kakao,,,,2025-10-14T08:13:53.599Z,2025-10-14T08:13:53.599Z
162784678,요가명상봄,010-2749-4091,경북 포항시 남구 연일읍 유강길 23-11,36.0048617058354,129.317846272927,"스포츠,레저 > 요가,필라테스 > 요가원",http://place.map.kakao.com/162784678,kakao,,,,2025-10-14T08:13:53.599Z,2025-10-14T08:13:53.599Z
1203570748,바라보다 요가명상,010-2956-0193,제주특별자치도 제주시 조천읍 중산간동로 668-1,33.49865234329332,126.65655879714956,"스포츠,레저 > 요가,필라테스 > 요가원",http://place.map.kakao.com/1203570748,kakao,,,,2025-10-14T08:13:53.599Z,2025-10-14T08:13:53.599Z
2054192069,숨 쉼 요가명상,042-489-1689,대전 서구 문정로 64,36.34643984667951,127.38638872753664,"스포츠,레저 > 요가,필라테스 > 요가원",http://place.map.kakao.com/2054192069,kakao,,,,2025-10-14T08:13:53.599Z,2025-10-14T08:13:53.599Z
11514793,해달요가명상,033-253-1991,강원특별자치도 춘천시 후석로 278,37.8764317723111,127.752727904725,"스포츠,레저 > 요가,필라테스 > 요가원",http://place.map.kakao.com/11514793,kakao,,,,2025-10-14T08:13:53.599Z,2025-10-14T08:13:53.599Z
1474731062,진기요가진기명상,051-989-8889,부산 사상구 사상로 227,35.1652992792494,128.982872833936,"스포츠,레저 > 요가,필라테스 > 요가원",http://place.map.kakao.com/1474731062,kakao,,,,2025-10-14T08:13:53.599Z,2025-10-14T08:13:53.599Z
1413437994,요가위빠사나명상,010-7794-6657,부산 동래구 중앙대로1335번길 91,35.20763864671249,129.07303939015478,"스포츠,레저 > 요가,필라테스 > 요가원",http://place.map.kakao.com/1413437994,kakao,,,,2025-10-14T08:13:53.599Z,2025-10-14T08:13:53.599Z
2057329646,싱아요가명상센터,0502-5553-4379,대구 수성구 동대구로 31,35.8331358115554,128.622883322628,"스포츠,레저 > 요가,필라테스 > 요가원",http://place.map.kakao.com/2057329646,kakao,,,,2025-10-14T08:13:53.600Z,2025-10-14T08:13:53.875Z
577037496,아이얀요가명상,031-272-3113,경기 용인시 수지구 현암로 165,37.3317710697084,127.127636631308,"스포츠,레저 > 요가,필라테스",http://place.map.kakao.com/577037496,kakao,,,,2025-10-14T08:13:53.600Z,2025-10-14T08:13:53.600Z
142965484,셰르파 요가명상 부곡점,0507-1328-4270,부산 금정구 부곡로142번길 3,35.2285121180501,129.092352689799,"스포츠,레저 > 요가,필라테스 > 요가원",http://place.map.kakao.com/142965484,kakao,,,,2025-10-14T08:13:53.600Z,2025-10-14T08:13:53.600Z
759352267,S요가명상센터,052-248-7769,울산 울주군 범서읍 구영로 72,35.5760647629359,129.240550202375,"스포츠,레저 > 요가,필라테스 > 요가원",http://place.map.kakao.com/759352267,kakao,,,,2025-10-14T08:13:53.600Z,2025-10-14T08:13:53.875Z
16304583,챠크라요가명상,,강원특별자치도 강릉시 교동광장로 139,37.76442092907617,128.8803636040102,"스포츠,레저 > 요가,필라테스 > 요가원",http://place.map.kakao.com/16304583,kakao,,,,2025-10-14T08:13:53.822Z,2025-10-14T08:13:53.822Z
1094658006,아임오케이요가명상,0503-7151-1669,전북특별자치도 전주시 덕진구 만성로 74-1,35.83811219002223,127.073820434476,"스포츠,레저 > 요가,필라테스 > 요가원",http://place.map.kakao.com/1094658006,kakao,,,,2025-10-14T08:13:53.823Z,2025-10-14T08:13:53.823Z
1071745923,아유요가명상센터,055-321-3372,경남 김해시 평전로 120-1,35.2404938406111,128.858614550758,"스포츠,레저 > 요가,필라테스 > 요가원",http://place.map.kakao.com/1071745923,kakao,,,,2025-10-14T08:13:53.823Z,2025-10-14T08:13:54.095Z
1301272545,요가명상고요,0503-7152-3847,경기 성남시 분당구 운중로 129,37.3919599452619,127.077411532655,"스포츠,레저 > 요가,필라테스 > 요가원",http://place.map.kakao.com/1301272545,kakao,,,,2025-10-14T08:13:53.823Z,2025-10-14T08:13:56.207Z
1499651780,숨요가명상,,대전 서구 둔산대로117번길 44,36.3669430507521,127.382562272205,"스포츠,레저 > 요가,필라테스 > 요가원",http://place.map.kakao.com/1499651780,kakao,,,,2025-10-14T08:13:53.823Z,2025-10-14T08:13:53.823Z
1750536024,수리야요가명상센터,052-277-3236,울산 울주군 범서읍 천상길 57,35.5607639175877,129.22545985969,"스포츠,레저 > 요가,필라테스 > 요가원",http://place.map.kakao.com/1750536024,kakao,,,,2025-10-14T08:13:53.823Z,2025-10-14T08:13:54.095Z
1716547962,셰르파요가명상 반여분원,010-5000-1177,부산 해운대구 명장로67번길 117,35.204459624978206,129.11588295232943,"스포츠,레저 > 요가,필라테스 > 요가원",http://place.map.kakao.com/1716547962,kakao,,,,2025-10-14T08:13:53.823Z,2025-10-14T08:13:53.823Z
1050574768,길코치요가명상센터,010-5448-0598,제주특별자치도 서귀포시 이어도로 946,33.23930767909031,126.51474756362957,"스포츠,레저 > 요가,필라테스 > 요가원",http://place.map.kakao.com/1050574768,kakao,,,,2025-10-14T08:13:53.823Z,2025-10-14T08:13:54.095Z
1541837408,이현요가&명상,02-501-5528,서울 강남구 언주로 314,37.4958955752008,127.046468242532,"스포츠,레저 > 요가,필라테스 > 요가원",http://place.map.kakao.com/1541837408,kakao,,,,2025-10-14T08:13:53.823Z,2025-10-14T08:13:53.823Z
23045095,라자요가명상센터,,부산 사하구 낙동대로 168-1,35.1022985087136,128.99764598324,"스포츠,레저 > 요가,필라테스 > 요가원",http://place.map.kakao.com/23045095,kakao,,,,2025-10-14T08:13:53.823Z,2025-10-14T08:13:54.095Z
1770995034,pa2요가명상,,경북 영주시 지천로 51,36.8049630241012,128.619468206603,"스포츠,레저 > 요가,필라테스 > 요가원",http://place.map.kakao.com/1770995034,kakao,,,,2025-10-14T08:13:53.823Z,2025-10-14T08:13:53.823Z
1809050434,수아스티숲요가명상센터,,울산 울주군 언양읍 대암1길 207,35.540209478034,129.167199720947,"스포츠,레저 > 요가,필라테스 > 요가원",http://place.map.kakao.com/1809050434,kakao,,,,2025-10-14T08:13:53.823Z,2025-10-14T08:13:54.096Z
498961564,리아요가명상,010-3974-1516,서울 중구 동호로 361,37.566573838377,127.001912914213,"스포츠,레저 > 요가,필라테스",http://place.map.kakao.com/498961564,kakao,,,,2025-10-14T08:13:53.823Z,2025-10-14T08:13:53.823Z
2029444998,오라요가명상,0503-7153-4305,인천 연수구 해돋이로 165,37.3947170795077,126.645092680475,"스포츠,레저 > 요가,필라테스 > 요가원",http://place.map.kakao.com/2029444998,kakao,,,,2025-10-14T08:13:53.823Z,2025-10-14T08:13:53.823Z
1112013303,셰르파요가명상 본원,0507-1373-8693,부산 해운대구 청사포로 85,35.162513795013645,129.188993588855,"스포츠,레저 > 요가,필라테스",http://place.map.kakao.com/1112013303,kakao,,,,2025-10-14T08:13:53.823Z,2025-10-14T08:13:53.823Z
17434750,요가쿨라 홍대센터,02-3143-2620,서울 마포구 와우산로29마길 24-1,37.55528824480366,126.9260640071197,"스포츠,레저 > 요가,필라테스 > 요가원",http://place.map.kakao.com/17434750,kakao,,,,2025-10-14T08:13:53.874Z,2025-10-14T08:13:53.874Z
1934663203,아름다운요가센터,041-533-5153,충남 아산시 배방읍 희망로 32,36.7870992640746,127.103962344945,"스포츠,레저 > 요가,필라테스 > 요가원",http://place.map.kakao.com/1934663203,kakao,,,,2025-10-14T08:13:53.874Z,2025-10-14T08:13:53.874Z
1587111677,최건희요가센터,010-2855-0423,울산 중구 화합로 407-1,35.5615876723461,129.337994789333,"스포츠,레저 > 요가,필라테스 > 요가원",http://place.map.kakao.com/1587111677,kakao,,,,2025-10-14T08:13:53.874Z,2025-10-14T08:13:53.874Z
16694314,샨티요가센타,051-467-7688,부산 동구 중앙대로286번길 3,35.1220257570622,129.043979591488,"스포츠,레저 > 요가,필라테스 > 요가원",http://place.map.kakao.com/16694314,kakao,,,,2025-10-14T08:13:53.874Z,2025-10-14T08:13:53.874Z
855033724,오경숙 자연치유 요가센터,064-722-2974,제주특별자치도 제주시 구남로8길 20-3,33.4896605921774,126.536845445206,"스포츠,레저 > 요가,필라테스",http://place.map.kakao.com/855033724,kakao,,,,2025-10-14T08:13:53.875Z,2025-10-14T08:13:53.875Z
836837860,공감치유요가센터,010-9067-3805,서울 동작구 시흥대로 606,37.4864919595114,126.905526124911,"스포츠,레저 > 요가,필라테스 > 요가원",http://place.map.kakao.com/836837860,kakao,,,,2025-10-14T08:13:53.875Z,2025-10-14T08:13:53.875Z
822673135,서민숙요가센타,010-9440-1716,경남 김해시 함박로 102,35.2319826292601,128.865199331815,"스포츠,레저 > 요가,필라테스 > 요가원",http://place.map.kakao.com/822673135,kakao,,,,2025-10-14T08:13:53.875Z,2025-10-14T08:13:53.875Z
24431634,사은요가테라피센터,061-791-5209,전남 광양시 광장로 127,34.93539709873805,127.69488350690888,"스포츠,레저 > 요가,필라테스 > 요가원",http://place.map.kakao.com/24431634,kakao,,,,2025-10-14T08:13:53.875Z,2025-10-14T08:13:53.875Z
2037408301,케어요가센터,010-4687-1694,서울 강동구 천호대로 1107,37.53555208184606,127.13484413618494,"스포츠,레저 > 요가,필라테스 > 요가원",http://place.map.kakao.com/2037408301,kakao,,,,2025-10-14T08:13:53.875Z,2025-10-14T08:13:53.875Z
354051617,보라매힐링명상&요가센터,02-6267-1433,서울 관악구 보라매로 25,37.4918156907281,126.926636596238,"스포츠,레저 > 명상",http://place.map.kakao.com/354051617,kakao,,,,2025-10-14T08:13:53.875Z,2025-10-14T08:13:53.875Z
818780973,스파인자연치유요가센터,033-764-2355,강원특별자치도 원주시 남원로527번길 22,37.3323885833324,127.94527665905,"스포츠,레저 > 요가,필라테스 > 요가원",http://place.map.kakao.com/818780973,kakao,,,,2025-10-14T08:13:53.875Z,2025-10-14T08:13:53.875Z
9528702,피트니스요가센터,,서울 강남구 남부순환로351길 34,37.4869294067983,127.033948110901,"스포츠,레저 > 요가,필라테스 > 요가원",http://place.map.kakao.com/9528702,kakao,,,,2025-10-14T08:13:54.095Z,2025-10-14T08:13:54.095Z
14491329,해맑은요가 목동센터,02-2645-9991,서울 양천구 신목로 97,37.52344533591,126.874987849912,"스포츠,레저 > 요가,필라테스 > 요가원",http://place.map.kakao.com/14491329,kakao,,,,2025-10-14T08:13:54.095Z,2025-10-14T08:13:54.095Z
1911927036,투혼필라테스&요가센터,010-5863-0234,경남 함안군 가야읍 말산로 28,35.2731995989712,128.40985946367,"스포츠,레저 > 요가,필라테스 > 필라테스",http://place.map.kakao.com/1911927036,kakao,,,,2025-10-14T08:13:54.095Z,2025-10-14T08:13:54.095Z
27458086,요가힐 춘천퇴계센터,033-262-0081,강원특별자치도 춘천시 지석로 11,37.8535291920984,127.737496455622,"스포츠,레저 > 요가,필라테스 > 요가원",http://place.map.kakao.com/27458086,kakao,,,,2025-10-14T08:13:54.095Z,2025-10-14T08:13:54.095Z
2090400083,아트요가센터 왕십리,02-2281-8279,서울 성동구 마장로 137,37.56988709970014,127.02389550736892,"스포츠,레저 > 요가,필라테스",http://place.map.kakao.com/2090400083,kakao,,,,2025-10-14T08:13:54.095Z,2025-10-14T08:13:54.095Z
891061305,엘요가센터,,전북특별자치도 고창군 고창읍 중앙로 170-6,35.4350407343163,126.692955668469,"스포츠,레저 > 요가,필라테스 > 요가원",http://place.map.kakao.com/891061305,kakao,,,,2025-10-14T08:13:54.095Z,2025-10-14T08:13:54.095Z
576903949,란요가센터,02-428-3232,서울 강동구 올림픽로 824,37.55437824430821,127.12938922428664,"스포츠,레저 > 요가,필라테스",http://place.map.kakao.com/576903949,kakao,,,,2025-10-14T08:13:54.095Z,2025-10-14T08:13:54.095Z
1381682538,나무요가센터,02-2292-1599,서울 성동구 한림말길 31,37.5410233669201,127.014494713955,"스포츠,레저 > 요가,필라테스 > 요가원",http://place.map.kakao.com/1381682538,kakao,,,,2025-10-14T08:13:54.095Z,2025-10-14T08:13:54.095Z
1595252819,아유르베다요가 부천센터,032-322-3022,경기 부천시 원미구 상동로 69,37.503754865776,126.752249147103,"스포츠,레저 > 요가,필라테스 > 요가원",http://place.map.kakao.com/1595252819,kakao,,,,2025-10-14T08:13:54.096Z,2025-10-14T08:13:54.096Z
27402776,위즈덤 요가&필라테스 시지센터,053-792-3860,대구 수성구 달구벌대로 3177,35.8413279590186,128.70456109708,"스포츠,레저 > 요가,필라테스",http://place.map.kakao.com/27402776,kakao,,,,2025-10-14T08:13:54.096Z,2025-10-14T08:13:54.096Z
27444159,김현숙요가센터,061-852-0367,전남 보성군 보성읍 중앙로 95,34.7699711743198,127.08065397678725,"스포츠,레저 > 요가,필라테스",http://place.map.kakao.com/27444159,kakao,,,,2025-10-14T08:13:54.325Z,2025-10-14T08:13:54.325Z
661335589,로제플라잉요가앤이엠에스센터 신당점,02-2231-2994,서울 중구 퇴계로 461,37.5654777964159,127.023040657354,"스포츠,레저 > 요가,필라테스 > 요가원",http://place.map.kakao.com/661335589,kakao,,,,2025-10-14T08:13:54.325Z,2025-10-14T08:13:54.325Z
1840427999,리드믹요가센터,02-587-3233,서울 송파구 충민로 66,37.4780859034035,127.124267255669,"스포츠,레저 > 요가,필라테스 > 요가원",http://place.map.kakao.com/1840427999,kakao,,,,2025-10-14T08:13:54.325Z,2025-10-14T08:13:54.325Z
1562874710,박미정요가센터,061-331-7171,전남 나주시 상야4길 22,35.0227444925058,126.791731523932,"스포츠,레저 > 요가,필라테스",http://place.map.kakao.com/1562874710,kakao,,,,2025-10-14T08:13:54.325Z,2025-10-14T08:13:54.325Z
19756307,아미요가힐링센터,,서울 영등포구 국회대로 780,37.5299530067155,126.919135757081,"스포츠,레저 > 요가,필라테스",http://place.map.kakao.com/19756307,kakao,,,,2025-10-14T08:13:54.325Z,2025-10-14T08:13:54.325Z
449182331,아난다요가센터,053-322-8565,대구 북구 매전로4길 10-10,35.9079775371782,128.543243460516,"스포츠,레저 > 요가,필라테스 > 요가원",http://place.map.kakao.com/449182331,kakao,,,,2025-10-14T08:13:54.325Z,2025-10-14T08:13:54.325Z
8356980,마음소리요가명상센터,,대구 수성구 들안로 264,35.8535030882799,128.617296718759,"스포츠,레저 > 요가,필라테스 > 요가원",http://place.map.kakao.com/8356980,kakao,,,,2025-10-14T08:13:54.325Z,2025-10-14T08:13:54.325Z
16609756,샨띠요가센터,,경기 안양시 동안구 관평로182번길 31,37.3938712947672,126.961906458336,"스포츠,레저 > 요가,필라테스 > 요가원",http://place.map.kakao.com/16609756,kakao,,,,2025-10-14T08:13:54.325Z,2025-10-14T08:13:54.325Z
1320014748,경희요가필라테스교육센터 영통점,031-206-3623,경기 수원시 영통구 덕영대로 1689,37.2479757052506,127.07602416886,"스포츠,레저 > 요가,필라테스",http://place.map.kakao.com/1320014748,kakao,,,,2025-10-14T08:13:54.325Z,2025-10-14T08:13:54.325Z
453170489,샤마타요가센터 아라점,010-2462-4136,인천 서구 이음대로 378,37.59395651456326,126.71259007115775,"스포츠,레저 > 요가,필라테스 > 요가원",http://place.map.kakao.com/453170489,kakao,,,,2025-10-14T08:13:54.326Z,2025-10-14T08:13:56.207Z
1908528959,최영회요가센터,010-4798-9627,울산 동구 문현로 37,35.4848588138971,129.4137426651,"스포츠,레저 > 요가,필라테스",http://place.map.kakao.com/1908528959,kakao,,,,2025-10-14T08:13:54.326Z,2025-10-14T08:13:54.326Z
26015323,요가기공경락센터,,대전 서구 둔산북로 175,36.3559937508951,127.393400274398,"스포츠,레저 > 요가,필라테스 > 요가원",http://place.map.kakao.com/26015323,kakao,,,,2025-10-14T08:13:54.326Z,2025-10-14T08:13:54.326Z
1497898865,오하요가 배곧센터점,,경기 시흥시 배곧3로 96,37.3698660014127,126.730391347113,"스포츠,레저 > 요가,필라테스",http://place.map.kakao.com/1497898865,kakao,,,,2025-10-14T08:13:54.326Z,2025-10-14T08:13:54.326Z
19678354,아헹가요가 부산센터,,부산 동래구 충렬대로 453,35.1959020153378,129.107947762216,"스포츠,레저 > 요가,필라테스 > 요가원",http://place.map.kakao.com/19678354,kakao,,,,2025-10-14T08:13:54.326Z,2025-10-14T08:13:54.326Z
902389156,프라나 요가하우스,0503-7151-5598,서울 성동구 성수일로3길 3-9,37.5418991375797,127.048355880467,"스포츠,레저 > 요가,필라테스 > 요가원",http://place.map.kakao.com/902389156,kakao,,,,2025-10-14T08:13:54.375Z,2025-10-14T08:13:54.375Z
23301248,프라나요가,051-892-1007,부산 부산진구 가야대로 479,35.15347021762476,129.0246106366295,"스포츠,레저 > 요가,필라테스 > 요가원",http://place.map.kakao.com/23301248,kakao,,,,2025-10-14T08:13:54.375Z,2025-10-14T08:13:54.375Z
1170669517,프라나요가,,강원특별자치도 춘천시 삭주로 206,37.886803673670215,127.75294488432621,"스포츠,레저 > 요가,필라테스 > 요가원",http://place.map.kakao.com/1170669517,kakao,,,,2025-10-14T08:13:54.375Z,2025-10-14T08:13:54.375Z
2135971187,프라나 스튜디오,070-8098-4480,서울 동대문구 이문로 114,37.5967352343929,127.060681963356,"스포츠,레저 > 요가,필라테스",http://place.map.kakao.com/2135971187,kakao,,,,2025-10-14T08:13:54.375Z,2025-10-14T08:13:54.375Z
18509104,프라나요가원,051-244-5053,부산 서구 구덕로 338,35.11385389109693,129.01601087314265,"스포츠,레저 > 요가,필라테스 > 요가원",http://place.map.kakao.com/18509104,kakao,,,,2025-10-14T08:13:54.375Z,2025-10-14T08:13:54.375Z
1682259579,프라나요가원,054-973-0581,경북 칠곡군 왜관읍 중앙로 73,35.9817158313064,128.398241321553,"스포츠,레저 > 요가,필라테스 > 요가원",http://place.map.kakao.com/1682259579,kakao,,,,2025-10-14T08:13:54.375Z,2025-10-14T08:13:54.375Z
21137336,프라나요가,0502-5552-4228,경북 경주시 현진앞2길 23,35.88342002294928,129.2219054373535,"스포츠,레저 > 요가,필라테스 > 요가원",http://place.map.kakao.com/21137336,kakao,,,,2025-10-14T08:13:54.605Z,2025-10-14T08:13:56.974Z
18591090,프라나요가,053-818-8883,경북 경산시 원효로36길 27,35.8173296629562,128.755096535816,"스포츠,레저 > 요가,필라테스 > 요가원",http://place.map.kakao.com/18591090,kakao,,,,2025-10-14T08:13:54.605Z,2025-10-14T08:13:54.605Z
1253048946,프라나요가,010-5904-7034,충북 진천군 진천읍 중앙서로 86,36.852248320871965,127.44098340941966,"스포츠,레저 > 요가,필라테스 > 요가원",http://place.map.kakao.com/1253048946,kakao,,,,2025-10-14T08:13:54.605Z,2025-10-14T08:13:54.605Z
1189761718,프라나요가필라테스,010-8516-3207,경남 통영시 동문로 65,34.8453457498218,128.4297356979813,"스포츠,레저 > 요가,필라테스",http://place.map.kakao.com/1189761718,kakao,,,,2025-10-14T08:13:54.605Z,2025-10-14T08:13:54.605Z
8420837,프라나요가,053-582-7703,대구 달서구 성지로 76-1,35.8560833025688,128.521327478779,"스포츠,레저 > 요가,필라테스 > 요가원",http://place.map.kakao.com/8420837,kakao,,,,2025-10-14T08:13:54.605Z,2025-10-14T08:13:54.605Z
2123211192,프라나요가원 광주,062-973-7009,광주 광산구 월계로 137,35.21371197729626,126.84040786161043,"스포츠,레저 > 요가,필라테스",http://place.map.kakao.com/2123211192,kakao,,,,2025-10-14T08:13:54.605Z,2025-10-14T08:13:54.605Z
1373649879,프라나요가,053-818-8883,경북 경산시 압량읍 대학로 770,35.8723654487197,128.781251640089,"스포츠,레저 > 요가,필라테스",http://place.map.kakao.com/1373649879,kakao,,,,2025-10-14T08:13:54.605Z,2025-10-14T08:13:54.605Z
1473085384,프라나요가&필라테스 서산점,041-663-3355,충남 서산시 동서1로 146,36.7668137427054,126.454857855396,"스포츠,레저 > 요가,필라테스 > 요가원",http://place.map.kakao.com/1473085384,kakao,,,,2025-10-14T08:13:54.835Z,2025-10-14T08:13:54.835Z
1088902163,프라나샨티요가,010-540-0911,강원특별자치도 춘천시 동내면 춘천순환로 130,37.8564536889898,127.758195947794,"스포츠,레저 > 요가,필라테스",http://place.map.kakao.com/1088902163,kakao,,,,2025-10-14T08:13:54.835Z,2025-10-14T08:13:54.835Z
658777459,프라나월요가,,전남 순천시 봉화2길 83-1,34.95996451872486,127.51782245742093,"스포츠,레저 > 스포츠시설 > 헬스클럽",http://place.map.kakao.com/658777459,kakao,,,,2025-10-14T08:13:54.835Z,2025-10-14T08:13:54.835Z
1605534643,요가&필라테스,,서울 양천구 신목로 47,37.5193999589325,126.872573856398,"스포츠,레저 > 요가,필라테스",http://place.map.kakao.com/1605534643,kakao,,,,2025-10-14T08:13:54.878Z,2025-10-14T08:13:54.878Z
740249967,요가&필라테스,010-9023-2525,경남 양산시 상북면 반회서5길 17,35.4143053095578,129.05833564907158,"스포츠,레저 > 요가,필라테스",http://place.map.kakao.com/740249967,kakao,,,,2025-10-14T08:13:54.879Z,2025-10-14T08:13:54.879Z
14854785,오앤요가 필라테스,02-501-0630,서울 강남구 테헤란로87길 13,37.50855291473752,127.05859841457173,"스포츠,레저 > 요가,필라테스",http://place.map.kakao.com/14854785,kakao,,,,2025-10-14T08:13:54.879Z,2025-10-14T08:13:57.473Z
429511323,이움요가&필라테스,,서울 종로구 사직로8길 5,37.5754239971239,126.969510878961,"스포츠,레저 > 요가,필라테스",http://place.map.kakao.com/429511323,kakao,,,,2025-10-14T08:13:54.879Z,2025-10-14T08:13:57.473Z
1265552826,바라던요가필라테스,,대구 수성구 청수로40길 41,35.837484810112,128.630133280508,"스포츠,레저 > 요가,필라테스",http://place.map.kakao.com/1265552826,kakao,,,,2025-10-14T08:13:54.879Z,2025-10-14T08:13:57.473Z
29875518,아이나요가&필라테스,010-8175-9015,서울 영등포구 당산로36길 7,37.5283008928891,126.898542937466,"스포츠,레저 > 요가,필라테스",http://place.map.kakao.com/29875518,kakao,,,,2025-10-14T08:13:54.879Z,2025-10-14T08:13:57.473Z
877894365,원희영 원요가&필라테스,031-205-7969,경기 수원시 영통구 영통로 141,37.2401616189993,127.0553031429191,"스포츠,레저 > 요가,필라테스 > 필라테스",http://place.map.kakao.com/877894365,kakao,,,,2025-10-14T08:13:54.879Z,2025-10-14T08:13:57.018Z
1328594607,아이앤지 요가&필라테스 주안점,032-872-7773,인천 미추홀구 미추홀대로575번길 9,37.4485414700903,126.678998574473,"스포츠,레저 > 요가,필라테스",http://place.map.kakao.com/1328594607,kakao,,,,2025-10-14T08:13:54.879Z,2025-10-14T08:13:57.473Z
143383371,딜라이트요가&필라테스,02-815-4414,서울 동작구 상도로 83,37.4999096594301,126.929979518932,"스포츠,레저 > 요가,필라테스",http://place.map.kakao.com/143383371,kakao,,,,2025-10-14T08:13:54.879Z,2025-10-14T08:13:54.879Z
1615821417,오필라요가&필라테스,053-655-1813,대구 남구 현충로 100,35.8418627402178,128.580276328441,"스포츠,레저 > 요가,필라테스",http://place.map.kakao.com/1615821417,kakao,,,,2025-10-14T08:13:54.879Z,2025-10-14T08:13:54.879Z
2043064759,다나요가&필라테스,031-295-5007,경기 수원시 팔달구 일월로22번길 10,37.2854007735353,126.98066034111935,"스포츠,레저 > 요가,필라테스 > 요가원",http://place.map.kakao.com/2043064759,kakao,,,,2025-10-14T08:13:54.879Z,2025-10-14T08:13:54.879Z
736735739,다사요가&필라테스,010-8855-0368,대구 달성군 다사읍 다사로 78,35.8672730923354,128.458695524217,"스포츠,레저 > 요가,필라테스",http://place.map.kakao.com/736735739,kakao,,,,2025-10-14T08:13:54.879Z,2025-10-14T08:13:54.879Z
1694579976,리즈요가&필라테스,052-257-9008,울산 남구 삼산로317번길 38,35.5433588971618,129.342146403157,"스포츠,레저 > 요가,필라테스",http://place.map.kakao.com/1694579976,kakao,,,,2025-10-14T08:13:54.879Z,2025-10-14T08:13:54.879Z
1650771714,제나요가필라테스,0503-7150-8457,부산 부산진구 복지로 22-2,35.151322757084465,129.02002149496326,"스포츠,레저 > 요가,필라테스 > 요가원",http://place.map.kakao.com/1650771714,kakao,,,,2025-10-14T08:13:54.879Z,2025-10-14T08:13:54.879Z
1725756356,제이요가앤필라테스,064-903-1010,제주특별자치도 제주시 매촌1길 3-1,33.515878175662,126.589024974284,"스포츠,레저 > 요가,필라테스 > 필라테스",http://place.map.kakao.com/1725756356,kakao,,,,2025-10-14T08:13:55.114Z,2025-10-14T08:13:57.018Z
1581469526,요가랑필라테스,053-781-0909,대구 달서구 당산로 85,35.845138111951876,128.5442639531962,"스포츠,레저 > 요가,필라테스",http://place.map.kakao.com/1581469526,kakao,,,,2025-10-14T08:13:55.115Z,2025-10-14T08:13:55.115Z
1453926818,뮤온요가&필라테스,02-994-3456,서울 강북구 도봉로 325,37.637324325694486,127.02434875110046,"스포츠,레저 > 요가,필라테스",http://place.map.kakao.com/1453926818,kakao,,,,2025-10-14T08:13:55.115Z,2025-10-14T08:13:55.115Z
782272164,하토르요가&필라테스,010-6542-5552,부산 연제구 법원남로16번길 24,35.1915465639787,129.075258398129,"스포츠,레저 > 요가,필라테스",http://place.map.kakao.com/782272164,kakao,,,,2025-10-14T08:13:55.115Z,2025-10-14T08:13:55.115Z
957584902,모던요가&필라테스,0503-7152-7212,서울 광진구 능동로 275,37.554537994355,127.077708404746,"스포츠,레저 > 요가,필라테스",http://place.map.kakao.com/957584902,kakao,,,,2025-10-14T08:13:55.115Z,2025-10-14T08:13:55.115Z
1528531398,밸런스요가/필라테스,,전남 무안군 무안읍 불무로 41-1,34.987862309773575,126.47218735114032,"가정,생활 > 미용 > 체형관리 > 다이어트,비만 > 단식원",http://place.map.kakao.com/1528531398,kakao,,,,2025-10-14T08:13:55.115Z,2025-10-14T08:13:55.115Z
895936520,온유 요가필라테스,010-9789-6664,서울 광진구 능동로 121,37.5418920468837,127.071252355084,"스포츠,레저 > 요가,필라테스 > 필라테스",http://place.map.kakao.com/895936520,kakao,,,,2025-10-14T08:13:55.115Z,2025-10-14T08:13:57.018Z
1689576700,팔월애요가필라테스,010-9552-7187,서울 강남구 봉은사로26길 14,37.505966106473885,127.03313224038206,"스포츠,레저 > 요가,필라테스",http://place.map.kakao.com/1689576700,kakao,,,,2025-10-14T08:13:55.115Z,2025-10-14T08:13:55.115Z
1019817468,늘 요가필라테스,,경북 포항시 북구 양학로 67,36.0290853908673,129.347323573471,"스포츠,레저 > 요가,필라테스",http://place.map.kakao.com/1019817468,kakao,,,,2025-10-14T08:13:55.116Z,2025-10-14T08:13:55.116Z
1545610649,코리아요가필라테스,054-283-2363,경북 포항시 북구 불종로 51,36.038632205001015,129.3652467022895,"스포츠,레저 > 요가,필라테스",http://place.map.kakao.com/1545610649,kakao,,,,2025-10-14T08:13:55.116Z,2025-10-14T08:13:55.116Z
8552275,케어요가앤필라테스,,부산 부산진구 동천로 55,35.153724084230596,129.06212208326804,"스포츠,레저 > 요가,필라테스 > 요가원",http://place.map.kakao.com/8552275,kakao,,,,2025-10-14T08:13:55.116Z,2025-10-14T08:13:55.116Z
27354387,도을요가필라테스,062-261-4560,광주 북구 면앙로 52,35.1789221192732,126.917706878897,"스포츠,레저 > 요가,필라테스 > 필라테스",http://place.map.kakao.com/27354387,kakao,,,,2025-10-14T08:13:55.116Z,2025-10-14T08:13:57.018Z
27183906,인요가필라테스,051-505-2207,부산 동래구 사직북로 24,35.1979764046054,129.060535261997,"스포츠,레저 > 요가,필라테스",http://place.map.kakao.com/27183906,kakao,,,,2025-10-14T08:13:55.116Z,2025-10-14T08:13:55.116Z
1374269535,요가하루앤필라테스,,광주 광산구 사암로 268,35.168281866745254,126.80919406133089,"스포츠,레저 > 스포츠시설 > 헬스클럽",http://place.map.kakao.com/1374269535,kakao,,,,2025-10-14T08:13:55.116Z,2025-10-14T08:13:55.116Z
1916226643,다인요가필라테스,031-565-0058,경기 구리시 건원대로 42,37.6048312551928,127.140351773086,"스포츠,레저 > 요가,필라테스 > 요가원",http://place.map.kakao.com/1916226643,kakao,,,,2025-10-14T08:13:55.395Z,2025-10-14T08:13:55.395Z
808683601,수요가필라테스,010-3930-2247,부산 동래구 명장로 128-1,35.2002653204086,129.112344401292,"스포츠,레저 > 요가,필라테스 > 요가원",http://place.map.kakao.com/808683601,kakao,,,,2025-10-14T08:13:55.395Z,2025-10-14T08:13:55.395Z
286229261,굿바디요가&필라테스,063-224-1236,전북특별자치도 전주시 완산구 하거마6길 39,35.7968343531371,127.117069194355,"스포츠,레저 > 스포츠시설 > 헬스클럽",http://place.map.kakao.com/286229261,kakao,,,,2025-10-14T08:13:55.395Z,2025-10-14T08:13:55.395Z
1348665063,데일리요가앤필라테스,042-535-3848,대전 서구 계룡로 599,36.3412937174393,127.39012273702,"스포츠,레저 > 요가,필라테스 > 요가원",http://place.map.kakao.com/1348665063,kakao,,,,2025-10-14T08:13:55.395Z,2025-10-14T08:13:55.395Z
7954142,서초샨티요가앤필라테스,02-537-9788,서울 서초구 서초대로 341,37.4955140078728,127.018645101316,"스포츠,레저 > 요가,필라테스 > 요가원",http://place.map.kakao.com/7954142,kakao,,,,2025-10-14T08:13:55.395Z,2025-10-14T08:13:55.395Z
19335774,슈요가&필라테스,051-342-0075,부산 북구 백양대로 1013,35.1962961617882,128.994276198104,"스포츠,레저 > 요가,필라테스",http://place.map.kakao.com/19335774,kakao,,,,2025-10-14T08:13:55.395Z,2025-10-14T08:13:55.395Z
747303278,쏭요가필라테스,043-287-4711,충북 청주시 상당구 1순환로 1257,36.6085272371708,127.504990426684,"스포츠,레저 > 요가,필라테스",http://place.map.kakao.com/747303278,kakao,,,,2025-10-14T08:13:55.395Z,2025-10-14T08:13:55.395Z
761691020,일월 요가 필라테스,0503-7151-0877,경기 고양시 일산동구 중앙로 1048,37.64366464545361,126.78786097794232,"스포츠,레저 > 요가,필라테스 > 필라테스",http://place.map.kakao.com/761691020,kakao,,,,2025-10-14T08:13:55.395Z,2025-10-14T08:13:57.018Z
1071185942,멜로우요가앤필라테스,063-903-7400,전북특별자치도 전주시 덕진구 오공로 47,35.8363638023522,127.060858050006,"스포츠,레저 > 요가,필라테스 > 필라테스",http://place.map.kakao.com/1071185942,kakao,,,,2025-10-14T08:13:55.395Z,2025-10-14T08:13:57.018Z
1275666855,이로움요가필라테스,,대구 수성구 청솔로6길 23,35.848658837259,128.621820500862,"스포츠,레저 > 요가,필라테스",http://place.map.kakao.com/1275666855,kakao,,,,2025-10-14T08:13:55.395Z,2025-10-14T08:13:55.395Z
507375202,와이미요가&필라테스,031-483-8333,경기 안산시 단원구 달미로 75,37.3425182869089,126.814894013303,"스포츠,레저 > 요가,필라테스",http://place.map.kakao.com/507375202,kakao,,,,2025-10-14T08:13:55.395Z,2025-10-14T08:13:55.395Z
888050924,미다움요가필라테스,02-435-8466,서울 중랑구 망우로 216,37.5938751241768,127.076778896581,"스포츠,레저 > 요가,필라테스",http://place.map.kakao.com/888050924,kakao,,,,2025-10-14T08:13:55.395Z,2025-10-14T08:13:55.395Z
36368887,사띠요가앤필라테스,041-563-8883,충남 천안시 동남구 청수14로 102,36.7855375307636,127.157376557697,"스포츠,레저 > 요가,필라테스",http://place.map.kakao.com/36368887,kakao,,,,2025-10-14T08:13:55.395Z,2025-10-14T08:13:55.395Z
1337920435,요가필라테스원,051-922-9226,부산 동래구 안연로 68,35.1934525442134,129.098984820765,"스포츠,레저 > 요가,필라테스 > 필라테스",http://place.map.kakao.com/1337920435,kakao,,,,2025-10-14T08:13:55.395Z,2025-10-14T08:13:57.018Z
30834402,미요가필라테스,044-868-9207,세종특별자치시 새롬중앙로 62-15,36.48681060626519,127.25157807447465,"스포츠,레저 > 요가,필라테스",http://place.map.kakao.com/30834402,kakao,,,,2025-10-14T08:13:55.395Z,2025-10-14T08:13:55.395Z
1632426594,핫요가,02-6349-1102,서울 영등포구 영신로19길 23,37.5135544872729,126.90542302588,"스포츠,레저 > 요가,필라테스",http://place.map.kakao.com/1632426594,kakao,,,,2025-10-14T08:13:55.469Z,2025-10-14T08:13:55.469Z
20954467,핫요가,,충북 청주시 서원구 예체로 23,36.6281953664479,127.468353866909,"스포츠,레저 > 요가,필라테스 > 요가원",http://place.map.kakao.com/20954467,kakao,,,,2025-10-14T08:13:55.469Z,2025-10-14T08:13:55.469Z
26084897,핫요가,,경기 평택시 경기대로 1407,37.0707482686956,127.064086980087,"스포츠,레저 > 명상 > 단전호흡",http://place.map.kakao.com/26084897,kakao,,,,2025-10-14T08:13:55.469Z,2025-10-14T08:13:55.469Z
17832799,아름다운핫요가,031-297-0467,경기 화성시 봉담읍 동화길 93-12,37.2168026352113,126.959769402864,"스포츠,레저 > 요가,필라테스 > 요가원",http://place.map.kakao.com/17832799,kakao,,,,2025-10-14T08:13:55.469Z,2025-10-14T08:13:55.469Z
14093679,윙스핫요가,042-488-7753,대전 서구 대덕대로 197,36.3508714359013,127.377773454781,"스포츠,레저 > 요가,필라테스 > 요가원",http://place.map.kakao.com/14093679,kakao,,,,2025-10-14T08:13:55.469Z,2025-10-14T08:13:55.469Z
19345505,바바핫요가,061-284-8593,전남 무안군 삼향읍 남악2로74번길 33,34.8130453291287,126.458514995223,"스포츠,레저 > 요가,필라테스 > 요가원",http://place.map.kakao.com/19345505,kakao,,,,2025-10-14T08:13:55.469Z,2025-10-14T08:13:55.469Z
19332077,라인핫요가,041-534-0501,충남 아산시 번영로 27,36.7860631986733,126.993869623888,"스포츠,레저 > 요가,필라테스 > 요가원",http://place.map.kakao.com/19332077,kakao,,,,2025-10-14T08:13:55.469Z,2025-10-14T08:13:55.469Z
16028026,스타일핫요가,02-6339-5400,서울 강서구 강서로 259,37.5488706815599,126.835990057993,"스포츠,레저 > 요가,필라테스 > 요가원",http://place.map.kakao.com/16028026,kakao,,,,2025-10-14T08:13:55.469Z,2025-10-14T08:13:55.469Z
13075658,바바나핫요가,02-529-7555,서울 강남구 선릉로 227,37.4958460864882,127.052746599253,"스포츠,레저 > 요가,필라테스 > 요가원",http://place.map.kakao.com/13075658,kakao,,,,2025-10-14T08:13:55.469Z,2025-10-14T08:13:55.469Z
12607529,W휘트니스핫요가,041-555-5940,충남 천안시 동남구 만남로 84,36.8202325281599,127.161110386469,"스포츠,레저 > 스포츠시설 > 헬스클럽",http://place.map.kakao.com/12607529,kakao,,,,2025-10-14T08:13:55.469Z,2025-10-14T08:13:55.469Z
19276484,자이핫요가,031-465-6326,경기 안양시 만안구 만안로 21,37.3853392573917,126.934571268753,"스포츠,레저 > 요가,필라테스 > 요가원",http://place.map.kakao.com/19276484,kakao,,,,2025-10-14T08:13:55.469Z,2025-10-14T08:13:55.469Z
26074430,핫요가센스스피링,,충남 당진시 당진중앙2로 148,36.89502749092,126.632867603651,"스포츠,레저 > 요가,필라테스 > 요가원",http://place.map.kakao.com/26074430,kakao,,,,2025-10-14T08:13:55.469Z,2025-10-14T08:13:55.469Z
9696725,핫요가스카이라인,,충남 논산시 시민로 241,36.1882456377673,127.096010033499,"스포츠,레저 > 요가,필라테스",http://place.map.kakao.com/9696725,kakao,,,,2025-10-14T08:13:55.469Z,2025-10-14T08:13:55.469Z
9604435,지니핫요가,051-342-0009,부산 북구 만덕2로 43,35.2096729632068,129.037781563903,"스포츠,레저 > 요가,필라테스 > 요가원",http://place.map.kakao.com/9604435,kakao,,,,2025-10-14T08:13:55.469Z,2025-10-14T08:13:55.469Z
10746566,인디아앤핫요가,055-323-5975,경남 김해시 인제로170번길 5,35.24406365587056,128.90455202299216,"스포츠,레저 > 요가,필라테스 > 요가원",http://place.map.kakao.com/10746566,kakao,,,,2025-10-14T08:13:55.469Z,2025-10-14T08:13:55.469Z
21056614,이지핫요가짐,,서울 강동구 양재대로 1365,37.528039236315,127.135894050682,"스포츠,레저 > 요가,필라테스 > 요가원",http://place.map.kakao.com/21056614,kakao,,,,2025-10-14T08:13:55.702Z,2025-10-14T08:13:55.702Z
24244777,킴스핫요가 사동점,031-409-7738,경기 안산시 상록구 석호로 219,37.2941961144636,126.85511729146,"스포츠,레저 > 요가,필라테스 > 요가원",http://place.map.kakao.com/24244777,kakao,,,,2025-10-14T08:13:55.702Z,2025-10-14T08:13:55.702Z
10547186,플라잉S핫요가협회,054-777-0061,경북 경주시 강변로 368,35.8561617075043,129.202833989275,"스포츠,레저 > 요가,필라테스 > 요가원",http://place.map.kakao.com/10547186,kakao,,,,2025-10-14T08:13:55.702Z,2025-10-14T08:13:55.702Z
23013150,뉴델리핫요가,,경기 수원시 권선구 세권로181번길 20-23,37.2563517738171,127.025822899725,"가정,생활 > 미용 > 체형관리 > 다이어트,비만 > 단식원",http://place.map.kakao.com/23013150,kakao,,,,2025-10-14T08:13:55.702Z,2025-10-14T08:13:55.702Z
25468193,더플라잉핫요가,02-2606-9898,서울 강서구 강서로 43,37.5315279881263,126.84651811242,"스포츠,레저 > 요가,필라테스 > 요가원",http://place.map.kakao.com/25468193,kakao,,,,2025-10-14T08:13:55.702Z,2025-10-14T08:13:55.702Z
14602696,스타핫요가,,충남 천안시 동남구 대흥로 3,36.7945247233858,127.159115934463,"가정,생활 > 미용 > 체형관리 > 다이어트,비만",http://place.map.kakao.com/14602696,kakao,,,,2025-10-14T08:13:55.702Z,2025-10-14T08:13:55.702Z
12797267,라임핫요가,02-2658-5452,서울 강서구 화곡로 420,37.56047532700014,126.85512840654195,"스포츠,레저 > 요가,필라테스 > 요가원",http://place.map.kakao.com/12797267,kakao,,,,2025-10-14T08:13:55.702Z,2025-10-14T08:13:55.702Z
18722098,락쉬미핫요가 본원,032-833-3860,인천 연수구 컨벤시아대로 81,37.3949456709326,126.650143007649,"스포츠,레저 > 요가,필라테스",http://place.map.kakao.com/18722098,kakao,,,,2025-10-14T08:13:55.702Z,2025-10-14T08:13:56.207Z
15206440,핫요가 월드 신내점,02-3421-9900,서울 중랑구 신내로14길 10,37.6055062709908,127.09610775284,"스포츠,레저 > 요가,필라테스 > 요가원",http://place.map.kakao.com/15206440,kakao,,,,2025-10-14T08:13:55.702Z,2025-10-14T08:13:55.702Z
27464382,박선숙핫요가&점핑,063-471-8005,전북특별자치도 군산시 수송로 214,35.9637743997102,126.719040022837,"스포츠,레저 > 요가,필라테스",http://place.map.kakao.com/27464382,kakao,,,,2025-10-14T08:13:55.702Z,2025-10-14T08:13:55.702Z
14602916,JRY핫요가,,경기 수원시 장안구 창룡대로 189,37.2925868740436,127.030630617321,"스포츠,레저 > 요가,필라테스 > 요가원",http://place.map.kakao.com/14602916,kakao,,,,2025-10-14T08:13:55.702Z,2025-10-14T08:13:55.702Z
12581556,코어핫요가,02-3665-3015,서울 구로구 경인로 661,37.5095286297804,126.887732993008,"스포츠,레저 > 요가,필라테스 > 요가원",http://place.map.kakao.com/12581556,kakao,,,,2025-10-14T08:13:55.702Z,2025-10-14T08:13:55.702Z
18582344,더블유핫요가,032-573-6712,인천 서구 원적로96번길 10,37.4943017385239,126.683314739107,"스포츠,레저 > 요가,필라테스 > 요가원",http://place.map.kakao.com/18582344,kakao,,,,2025-10-14T08:13:55.702Z,2025-10-14T08:13:55.702Z
18553569,제시핫요가,033-645-1161,강원특별자치도 강릉시 경강로2103번길 9,37.755845642985165,128.89599942979535,"스포츠,레저 > 요가,필라테스 > 요가원",http://place.map.kakao.com/18553569,kakao,,,,2025-10-14T08:13:55.702Z,2025-10-14T08:13:55.702Z
18474589,핫요가핏 장전동점,051-514-0777,부산 금정구 금정로68번길 31-4,35.2305360112079,129.088341054872,"스포츠,레저 > 요가,필라테스 > 요가원",http://place.map.kakao.com/18474589,kakao,,,,2025-10-14T08:13:55.702Z,2025-10-14T08:13:55.702Z
1821396707,아름다운핫요가 2호점,,경기 화성시 봉담읍 상리중심상가길 28-18,37.2274482562743,126.9455726618,"스포츠,레저 > 요가,필라테스 > 요가원",http://place.map.kakao.com/1821396707,kakao,,,,2025-10-14T08:13:55.933Z,2025-10-14T08:13:55.933Z
19839139,핫요가써니,,경기 수원시 장안구 정자천로 187,37.2965661277212,126.995457046133,"스포츠,레저 > 요가,필라테스 > 요가원",http://place.map.kakao.com/19839139,kakao,,,,2025-10-14T08:13:55.933Z,2025-10-14T08:13:55.933Z
723815237,핫요가헬스힐링존,032-832-6711,인천 연수구 한나루로 104,37.4223678328785,126.6494506033,"스포츠,레저 > 스포츠시설 > 헬스클럽",http://place.map.kakao.com/723815237,kakao,,,,2025-10-14T08:13:55.934Z,2025-10-14T08:13:55.934Z
441894051,핫요가숨,,서울 강서구 공항대로 627,37.5472871254306,126.874538402319,"스포츠,레저 > 요가,필라테스",http://place.map.kakao.com/441894051,kakao,,,,2025-10-14T08:13:55.934Z,2025-10-14T08:13:55.934Z
13563094,더원핫요가,,경기 수원시 장안구 송원로 81,37.3020802031864,127.009190340214,"스포츠,레저 > 요가,필라테스 > 요가원",http://place.map.kakao.com/13563094,kakao,,,,2025-10-14T08:13:55.934Z,2025-10-14T08:13:55.934Z
18315698,쉬즈핫요가,041-669-7324,충남 서산시 중앙로 10,36.7826926213217,126.452809609721,"스포츠,레저 > 요가,필라테스 > 요가원",http://place.map.kakao.com/18315698,kakao,,,,2025-10-14T08:13:55.934Z,2025-10-14T08:13:55.934Z
12711133,아름다운핫요가,053-352-3535,대구 북구 침산남로 165-2,35.8878700561903,128.594031491818,"스포츠,레저 > 요가,필라테스 > 요가원",http://place.map.kakao.com/12711133,kakao,,,,2025-10-14T08:13:55.934Z,2025-10-14T08:13:55.934Z
17589376,나비핫요가,,경기 오산시 경기대로 105,37.133971354625636,127.07236036939166,"스포츠,레저 > 요가,필라테스 > 요가원",http://place.map.kakao.com/17589376,kakao,,,,2025-10-14T08:13:55.934Z,2025-10-14T08:13:55.934Z
7890169,퀸즈핫요가 내방점,02-595-7887,서울 서초구 방배로 202,37.4915543517436,126.991578033477,"스포츠,레저 > 요가,필라테스 > 요가원",http://place.map.kakao.com/7890169,kakao,,,,2025-10-14T08:13:55.934Z,2025-10-14T08:13:55.934Z
18444461,핫피플요가,,경기 수원시 장안구 경수대로 965,37.3038645072988,127.004972014827,"스포츠,레저 > 요가,필라테스 > 요가원",http://place.map.kakao.com/18444461,kakao,,,,2025-10-14T08:13:55.934Z,2025-10-14T08:13:55.934Z
490455300,블루핫요가,,서울 도봉구 시루봉로 56,37.6558251585166,127.028238457339,"스포츠,레저 > 요가,필라테스 > 요가원",http://place.map.kakao.com/490455300,kakao,,,,2025-10-14T08:13:55.934Z,2025-10-14T08:13:55.934Z
18313254,아트핫요가 용현점,032-891-0884,인천 미추홀구 낙섬서로 3,37.4503182433691,126.63345754074,"스포츠,레저 > 요가,필라테스",http://place.map.kakao.com/18313254,kakao,,,,2025-10-14T08:13:55.934Z,2025-10-14T08:13:55.934Z
13603710,W핫요가,02-2066-3316,서울 구로구 경인로 397,37.497714766601,126.863848802101,"스포츠,레저 > 요가,필라테스",http://place.map.kakao.com/13603710,kakao,,,,2025-10-14T08:13:55.934Z,2025-10-14T08:13:55.934Z
20001302,죽전핫요가,,경기 용인시 기흥구 죽전로15번길 16-10,37.3218409009564,127.110520525836,"스포츠,레저 > 스포츠시설",http://place.map.kakao.com/20001302,kakao,,,,2025-10-14T08:13:55.934Z,2025-10-14T08:13:55.934Z
19697028,청담핫요가 신월점,0502-5552-3352,서울 양천구 신월로 175,37.5187617701884,126.84246636659198,"스포츠,레저 > 요가,필라테스 > 요가원",http://place.map.kakao.com/19697028,kakao,,,,2025-10-14T08:13:55.934Z,2025-10-14T08:13:55.934Z
27600874,윤주영 명상요가임산부요가,02-522-0122,서울 동작구 남부순환로 2073,37.4769745202236,126.979297383989,"스포츠,레저 > 요가,필라테스 > 요가원",http://place.map.kakao.com/27600874,kakao,,,,2025-10-14T08:13:55.975Z,2025-10-14T08:13:55.975Z
1821715453,윤주영임산부요가 사당직영점,02-597-2460,서울 동작구 남부순환로 2073,37.4769817283003,126.979297382,"스포츠,레저 > 요가,필라테스",http://place.map.kakao.com/1821715453,kakao,,,,2025-10-14T08:13:55.975Z,2025-10-14T08:13:55.975Z
1094400293,요가하라,0502-5552-3879,경기 안양시 동안구 경수대로 611,37.37685138427615,126.95539144840308,"교육,학문 > 교육단체 > 평생교육원,사회교육원",http://place.map.kakao.com/1094400293,kakao,,,,2025-10-14T08:13:55.975Z,2025-10-14T08:13:55.975Z
1660893406,요가하라 범계역점,0503-7152-5345,경기 안양시 동안구 시민대로 199,37.392239971698,126.953072963244,"스포츠,레저 > 요가,필라테스 > 요가원",http://place.map.kakao.com/1660893406,kakao,,,,2025-10-14T08:13:55.975Z,2025-10-14T08:13:55.975Z
522068420,세타요가,010-9227-0716,경기 성남시 분당구 대왕판교로606번길 31,37.3966872948543,127.110661955017,"스포츠,레저 > 요가,필라테스 > 요가원",http://place.map.kakao.com/522068420,kakao,,,,2025-10-14T08:13:55.975Z,2025-10-14T08:13:55.975Z
719327075,쁘램요가 쌍용점,010-7363-9881,충남 천안시 서북구 월봉로 93,36.798958373672825,127.11796114556657,"스포츠,레저 > 요가,필라테스",http://place.map.kakao.com/719327075,kakao,,,,2025-10-14T08:13:55.975Z,2025-10-14T08:13:55.975Z
1220375056,디오요가스튜디오,010-4783-7137,강원특별자치도 속초시 엑스포로 129,38.1955988949014,128.581417113565,"스포츠,레저 > 요가,필라테스",http://place.map.kakao.com/1220375056,kakao,,,,2025-10-14T08:13:55.975Z,2025-10-14T08:13:55.975Z
1066088099,요하요가,0507-1476-0495,서울 강동구 동남로81길 60,37.55953450112992,127.15357327085846,"스포츠,레저 > 요가,필라테스 > 요가원",http://place.map.kakao.com/1066088099,kakao,,,,2025-10-14T08:13:55.975Z,2025-10-14T08:13:55.975Z
771223884,라야요가,010-5040-4330,경기 안양시 만안구 삼성산길 10,37.433927739605,126.904297364775,"스포츠,레저 > 요가,필라테스 > 요가원",http://place.map.kakao.com/771223884,kakao,,,,2025-10-14T08:13:55.975Z,2025-10-14T08:13:55.975Z
193771606,에테르아쉬람요가,010-7413-4677,부산 동구 범일로 21,35.1316855900238,129.059345849001,"스포츠,레저 > 요가,필라테스 > 요가원",http://place.map.kakao.com/193771606,kakao,,,,2025-10-14T08:13:55.975Z,2025-10-14T08:13:55.975Z
1829942036,서서히요가,010-9462-4429,서울 중랑구 양원역로14가길 20,37.6074533352401,127.106570218575,"스포츠,레저 > 요가,필라테스",http://place.map.kakao.com/1829942036,kakao,,,,2025-10-14T08:13:55.976Z,2025-10-14T08:13:55.976Z
670344931,요가온도,010-4768-6002,서울 양천구 중앙로 237,37.5177426987599,126.853643266983,"스포츠,레저 > 요가,필라테스 > 요가원",http://place.map.kakao.com/670344931,kakao,,,,2025-10-14T08:13:55.976Z,2025-10-14T08:13:55.976Z
576175427,요가타타타,0503-7151-6248,경기 광주시 태전동1길 12,37.3844723816342,127.234113982216,"스포츠,레저 > 요가,필라테스",http://place.map.kakao.com/576175427,kakao,,,,2025-10-14T08:13:55.976Z,2025-10-14T08:13:55.976Z
300076446,요가비욘드,0502-5552-6864,울산 북구 새장터6길 9-6,35.534751505896715,129.39150163156052,"스포츠,레저 > 요가,필라테스 > 요가원",http://place.map.kakao.com/300076446,kakao,,,,2025-10-14T08:13:55.976Z,2025-10-14T08:13:55.976Z
12720042,오엔요가 군자점,02-447-4545,서울 광진구 천호대로 556,37.55675763585067,127.07968448710653,"스포츠,레저 > 요가,필라테스",http://place.map.kakao.com/12720042,kakao,,,,2025-10-14T08:13:56.207Z,2025-10-14T08:13:56.207Z
1744049131,하루요가 광주첨단점,062-571-8157,광주 북구 첨단연신로 261,35.2073202054392,126.859055861476,"스포츠,레저 > 요가,필라테스 > 요가원",http://place.map.kakao.com/1744049131,kakao,,,,2025-10-14T08:13:56.207Z,2025-10-14T08:13:56.207Z
1937495179,오온요가,0503-7150-7714,대구 수성구 달구벌대로 3117,35.8427288729004,128.698158672982,"스포츠,레저 > 요가,필라테스 > 요가원",http://place.map.kakao.com/1937495179,kakao,,,,2025-10-14T08:13:56.207Z,2025-10-14T08:13:56.207Z
1222992364,요가 더원,02-6449-9090,서울 중구 청계천로 400,37.5708101859956,127.021464339339,"스포츠,레저 > 요가,필라테스",http://place.map.kakao.com/1222992364,kakao,,,,2025-10-14T08:13:56.207Z,2025-10-14T08:13:56.207Z
2041848149,서하요가&싱잉볼,02-573-0333,서울 서초구 강남대로6길 28-15,37.466890580282,127.04335186525,"스포츠,레저 > 요가,필라테스 > 요가원",http://place.map.kakao.com/2041848149,kakao,,,,2025-10-14T08:13:56.207Z,2025-10-14T08:13:56.207Z
2052893696,옴샨티요가,010-5459-5465,경기 양주시 옥정로7길 9-5,37.8278728547453,127.091287373328,"스포츠,레저 > 요가,필라테스 > 요가원",http://place.map.kakao.com/2052893696,kakao,,,,2025-10-14T08:13:56.207Z,2025-10-14T08:13:56.207Z
44875115,브레스요가스튜디오,0503-7152-7532,서울 마포구 월드컵로42길 14,37.57826676869331,126.88221287423058,"스포츠,레저 > 요가,필라테스",http://place.map.kakao.com/44875115,kakao,,,,2025-10-14T08:13:56.207Z,2025-10-14T08:13:56.207Z
1367553699,요가미당,010-8669-5858,충북 제천시 봉양읍 용두대로36길 19,37.1582651388916,128.159660443405,"스포츠,레저 > 요가,필라테스",http://place.map.kakao.com/1367553699,kakao,,,,2025-10-14T08:13:56.207Z,2025-10-14T08:13:56.207Z
648523617,소마온요가,0502-5552-9028,서울 마포구 마포대로 179,37.55035268938879,126.95487859113358,"스포츠,레저 > 요가,필라테스 > 요가원",http://place.map.kakao.com/648523617,kakao,,,,2025-10-14T08:13:56.207Z,2025-10-14T08:13:56.207Z
1414277888,해봄요가,031-375-9191,경기 화성시 동탄지성로 92,37.2075071862971,127.065050710761,"스포츠,레저 > 요가,필라테스 > 요가원",http://place.map.kakao.com/1414277888,kakao,,,,2025-10-14T08:13:56.207Z,2025-10-14T08:13:56.207Z
746933136,산야요가&필라테스,031-851-2560,경기 의정부시 용민로92번길 20,37.7372430070336,127.088023213277,"스포츠,레저 > 요가,필라테스",http://place.map.kakao.com/746933136,kakao,,,,2025-10-14T08:13:56.207Z,2025-10-14T08:13:56.207Z
273597776,홈트요가,010-3236-4622,경기 광주시 능평로 53,37.35269356671425,127.16503592600637,"스포츠,레저 > 요가,필라테스",http://place.map.kakao.com/273597776,kakao,,,,2025-10-14T08:13:56.435Z,2025-10-14T08:13:56.435Z
974397484,브륵샤요가,043-287-4860,충북 청주시 상당구 낙가산로 115,36.6238586249265,127.533625027621,"스포츠,레저 > 요가,필라테스",http://place.map.kakao.com/974397484,kakao,,,,2025-10-14T08:13:56.435Z,2025-10-14T08:13:56.435Z
1852985339,해남의아침 요가앤운동센터,010-7287-5413,전남 해남군 해남읍 수성4길 20,34.5723259125952,126.600408062787,"스포츠,레저 > 요가,필라테스 > 요가원",http://place.map.kakao.com/1852985339,kakao,,,,2025-10-14T08:13:56.435Z,2025-10-14T08:13:56.435Z
566380163,단다요가,041-578-1097,충남 천안시 서북구 월봉로 94,36.7989749958637,127.118463157124,"스포츠,레저 > 요가,필라테스 > 요가원",http://place.map.kakao.com/566380163,kakao,,,,2025-10-14T08:13:56.435Z,2025-10-14T08:13:56.435Z
2129475800,요가샨,0503-7151-6189,부산 수영구 수영로 609,35.16010288068457,129.1134306306317,"스포츠,레저 > 요가,필라테스 > 요가원",http://place.map.kakao.com/2129475800,kakao,,,,2025-10-14T08:13:56.435Z,2025-10-14T08:13:56.435Z
1741919196,세리 필라테스 향군타워점,02-2152-7522,서울 송파구 올림픽로35길 123,37.516620459899,127.101269312837,"스포츠,레저 > 요가,필라테스 > 필라테스",http://place.map.kakao.com/1741919196,kakao,,,,2025-10-14T08:13:56.435Z,2025-10-14T08:13:56.435Z
1183104925,가바요가,031-966-0239,경기 고양시 일산동구 위시티2로11번길 14-22,37.6766726382351,126.813250833705,"스포츠,레저 > 요가,필라테스",http://place.map.kakao.com/1183104925,kakao,,,,2025-10-14T08:13:56.435Z,2025-10-14T08:13:56.435Z
968371860,파리푸르나,0502-5550-9796,경기 광주시 태전중앙1길 5,37.3821055639338,127.228500538586,"스포츠,레저 > 요가,필라테스 > 요가원",http://place.map.kakao.com/968371860,kakao,,,,2025-10-14T08:13:56.436Z,2025-10-14T08:13:56.436Z
1629575745,라나요가명상,031-719-8788,경기 성남시 분당구 미금로 48,37.3377554864294,127.116506615166,"스포츠,레저 > 요가,필라테스 > 요가원",http://place.map.kakao.com/1629575745,kakao,,,,2025-10-14T08:13:56.436Z,2025-10-14T08:13:56.436Z
967217484,디르요가,010-3341-5359,인천 연수구 하모니로 158,37.38303345894616,126.64236331450985,"스포츠,레저 > 요가,필라테스 > 요가원",http://place.map.kakao.com/967217484,kakao,,,,2025-10-14T08:13:56.436Z,2025-10-14T08:13:56.436Z
1123128606,드리시티요가,010-3168-7030,서울 마포구 백범로10길 26,37.5482484083622,126.939737590624,"스포츠,레저 > 요가,필라테스 > 요가원",http://place.map.kakao.com/1123128606,kakao,,,,2025-10-14T08:13:56.745Z,2025-10-14T08:13:56.745Z
1074372398,요가그라하,0503-7152-1703,경기 고양시 일산동구 장백로 56,37.6429689683769,126.786795615608,"스포츠,레저 > 요가,필라테스 > 요가원",http://place.map.kakao.com/1074372398,kakao,,,,2025-10-14T08:13:56.745Z,2025-10-14T08:13:56.745Z
216839145,요가 고원,0502-5550-5640,서울 은평구 응암로 211,37.5909013361491,126.91713028161,"스포츠,레저 > 요가,필라테스 > 요가원",http://place.map.kakao.com/216839145,kakao,,,,2025-10-14T08:13:56.745Z,2025-10-14T08:13:56.745Z
1720806375,루트요가,02-583-9877,서울 서초구 방배천로2안길 45,37.4790079027364,126.983814619811,"스포츠,레저 > 요가,필라테스 > 요가원",http://place.map.kakao.com/1720806375,kakao,,,,2025-10-14T08:13:56.974Z,2025-10-14T08:13:56.974Z
33890603,요가얌,0507-1368-8692,경기 성남시 분당구 불정로376번길 37,37.3716291364231,127.139444241758,"스포츠,레저 > 요가,필라테스 > 요가원",http://place.map.kakao.com/33890603,kakao,,,,2025-10-14T08:13:56.974Z,2025-10-14T08:13:56.974Z
1402891332,샴요가,010-2898-1598,경기 성남시 분당구 백현로144번길 27,37.3717490037405,127.112325537326,"스포츠,레저 > 요가,필라테스 > 요가원",http://place.map.kakao.com/1402891332,kakao,,,,2025-10-14T08:13:56.974Z,2025-10-14T08:13:56.974Z
516136691,샨툴란요가,031-935-4771,경기 파주시 경의로 1090,37.7145074342766,126.760059708704,"스포츠,레저 > 요가,필라테스 > 요가원",http://place.map.kakao.com/516136691,kakao,,,,2025-10-14T08:13:56.974Z,2025-10-14T08:13:56.974Z
190050696,차앤요가,010-8139-8828,경기 수원시 권선구 금곡로 100,37.273875209924,126.941289691213,"스포츠,레저 > 요가,필라테스",http://place.map.kakao.com/190050696,kakao,,,,2025-10-14T08:13:56.974Z,2025-10-14T08:13:56.974Z
988503731,바른생각필라테스&요가,010-4458-3351,서울 강남구 삼성로 14,37.4878510166241,127.07375075304,"스포츠,레저 > 요가,필라테스",http://place.map.kakao.com/988503731,kakao,,,,2025-10-14T08:13:56.976Z,2025-10-14T08:13:56.976Z
2069880621,바디앤소울요가,053-246-7929,대구 동구 안심로16길 47,35.8632559550615,128.693738904882,"스포츠,레저 > 요가,필라테스",http://place.map.kakao.com/2069880621,kakao,,,,2025-10-14T08:13:56.976Z,2025-10-14T08:13:56.976Z
2078766842,스튜디오무아,0502-5551-5300,서울 용산구 녹사평대로40가길 2-7,37.5347706806225,126.98776707555,"스포츠,레저 > 요가,필라테스 > 요가원",http://place.map.kakao.com/2078766842,kakao,,,,2025-10-14T08:13:56.976Z,2025-10-14T08:13:56.976Z
1683394818,로카요가,010-5187-2125,서울 성북구 아리랑로5다길 5,37.599991177894,127.01108627399,"스포츠,레저 > 요가,필라테스 > 요가원",http://place.map.kakao.com/1683394818,kakao,,,,2025-10-14T08:13:56.976Z,2025-10-14T08:13:56.976Z
631948442,서아요가,010-3102-6564,인천 남동구 남동대로765번길 26,37.4510576123198,126.706220030407,"스포츠,레저 > 요가,필라테스 > 요가원",http://place.map.kakao.com/631948442,kakao,,,,2025-10-14T08:13:56.976Z,2025-10-14T08:13:56.976Z
291409145,요가오스튜디오,010-6597-1420,충남 천안시 서북구 성성8로 14-20,36.84038353779319,127.13063159975609,"스포츠,레저 > 요가,필라테스 > 요가원",http://place.map.kakao.com/291409145,kakao,,,,2025-10-14T08:13:56.976Z,2025-10-14T08:13:56.976Z
517524277,숨요가필라테스,051-897-6652,부산 부산진구 엄광로 16,35.14813033910874,129.01794131018332,"스포츠,레저 > 요가,필라테스 > 필라테스",http://place.map.kakao.com/517524277,kakao,,,,2025-10-14T08:13:57.018Z,2025-10-14T08:13:57.018Z
421040612,담은요가필라테스,010-6566-6573,서울 강남구 선릉로 431,37.5034449468642,127.049087672935,"스포츠,레저 > 요가,필라테스 > 필라테스",http://place.map.kakao.com/421040612,kakao,,,,2025-10-14T08:13:57.018Z,2025-10-14T08:13:57.018Z
30995854,요가솔필라테스 대동점,042-285-6235,대전 동구 계족로 188,36.3303655865574,127.442273000737,"스포츠,레저 > 요가,필라테스 > 필라테스",http://place.map.kakao.com/30995854,kakao,,,,2025-10-14T08:13:57.018Z,2025-10-14T08:13:57.018Z
1707793659,요가비움&채움필라테스,041-933-7730,충남 보령시 목장3길 10,36.34962672903866,126.59813621314166,"스포츠,레저 > 요가,필라테스 > 필라테스",http://place.map.kakao.com/1707793659,kakao,,,,2025-10-14T08:13:57.018Z,2025-10-14T08:13:57.018Z
1491700256,포근요가&필라테스,,경기 수원시 권선구 곡반정로 160,37.241740126302425,127.03416579615221,"스포츠,레저 > 요가,필라테스 > 필라테스",http://place.map.kakao.com/1491700256,kakao,,,,2025-10-14T08:13:57.018Z,2025-10-14T08:13:57.018Z
1661923586,온요가필라테스 명지점,051-203-1526,부산 강서구 명지국제11로 25,35.1048450911187,128.921296069059,"스포츠,레저 > 요가,필라테스 > 필라테스",http://place.map.kakao.com/1661923586,kakao,,,,2025-10-14T08:13:57.018Z,2025-10-14T08:13:57.018Z
1178231650,수요가필라테스,,경기 화성시 동탄신리천로1길 74,37.179952034687545,127.11950475902297,"스포츠,레저 > 요가,필라테스 > 필라테스",http://place.map.kakao.com/1178231650,kakao,,,,2025-10-14T08:13:57.019Z,2025-10-14T08:13:57.019Z
782724209,요가필라테스H,053-358-7774,대구 북구 침산로32길 11-7,35.89068988783097,128.59184547330574,"스포츠,레저 > 요가,필라테스 > 필라테스",http://place.map.kakao.com/782724209,kakao,,,,2025-10-14T08:13:57.019Z,2025-10-14T08:13:57.019Z
1460357269,힐링본 요가 필라테스,010-9321-2715,서울 관악구 신사로 104-1,37.4872183811492,126.914060888158,"스포츠,레저 > 요가,필라테스 > 필라테스",http://place.map.kakao.com/1460357269,kakao,,,,2025-10-14T08:13:57.241Z,2025-10-14T08:13:57.241Z
1806827070,요가베리필라테스,055-311-0433,경남 김해시 장유로334번길 14-2,35.1961735802538,128.815298873664,"스포츠,레저 > 요가,필라테스 > 필라테스",http://place.map.kakao.com/1806827070,kakao,,,,2025-10-14T08:13:57.241Z,2025-10-14T08:13:57.241Z
1187844537,자야요가&필라테스 향남2호점,031-8059-1636,경기 화성시 향남읍 향남로 430-18,37.1325564617992,126.922990806309,"스포츠,레저 > 요가,필라테스 > 필라테스",http://place.map.kakao.com/1187844537,kakao,,,,2025-10-14T08:13:57.241Z,2025-10-14T08:13:57.241Z
25596788,스텔라요가&필라테스 도안점,0507-1396-6677,대전 유성구 도안북로 85-7,36.33065646292299,127.33765303987823,"스포츠,레저 > 요가,필라테스 > 필라테스",http://place.map.kakao.com/25596788,kakao,,,,2025-10-14T08:13:57.241Z,2025-10-14T08:13:57.241Z
1212557396,유즈요가&필라테스,033-646-9320,강원특별자치도 강릉시 교동광장로 143,37.76435887063021,128.88075238804254,"스포츠,레저 > 요가,필라테스 > 필라테스",http://place.map.kakao.com/1212557396,kakao,,,,2025-10-14T08:13:57.241Z,2025-10-14T08:13:57.241Z
2024275569,미뇽플라잉 더요가필라테스 서면점,0507-1357-0733,부산 부산진구 황령대로 69-1,35.150229278134354,129.066410602653,"스포츠,레저 > 요가,필라테스 > 필라테스",http://place.map.kakao.com/2024275569,kakao,,,,2025-10-14T08:13:57.241Z,2025-10-14T08:13:57.241Z
27564399,킴스요가 N필라테스 안성점,031-677-3383,경기 안성시 안성맞춤대로 1042-1,37.006465334508,127.269425409239,"스포츠,레저 > 요가,필라테스 > 필라테스",http://place.map.kakao.com/27564399,kakao,,,,2025-10-14T08:13:57.241Z,2025-10-14T08:13:57.241Z
189632492,카루나요가앤필라테스 종촌점,010-7380-3848,세종특별자치시 도움1로 106,36.5028106859304,127.248113738825,"스포츠,레저 > 요가,필라테스 > 필라테스",http://place.map.kakao.com/189632492,kakao,,,,2025-10-14T08:13:57.241Z,2025-10-14T08:13:57.241Z
760994953,아이엔요가&필라테스 월곡역점,0503-7150-2641,서울 성북구 화랑로 91,37.6029898830044,127.042131796096,"스포츠,레저 > 요가,필라테스 > 필라테스",http://place.map.kakao.com/760994953,kakao,,,,2025-10-14T08:13:57.241Z,2025-10-14T08:13:57.241Z
26533940,더요가필라테스 울산교육관,052-247-9008,울산 남구 울밀로 2906,35.5546124739863,129.264819724966,"스포츠,레저 > 요가,필라테스 > 필라테스",http://place.map.kakao.com/26533940,kakao,,,,2025-10-14T08:13:57.242Z,2025-10-14T08:13:57.242Z
1044294678,아이엔요가&필라테스 명일점,010-2406-5694,서울 강동구 양재대로 1618,37.54984904861215,127.14407018690515,"스포츠,레저 > 요가,필라테스 > 필라테스",http://place.map.kakao.com/1044294678,kakao,,,,2025-10-14T08:13:57.242Z,2025-10-14T08:13:57.242Z
2082996921,시그니처요가&필라테스 중앙점,033-655-8848,강원특별자치도 강릉시 경강로 2097,37.7548886537672,128.89607370987,"스포츠,레저 > 요가,필라테스 > 필라테스",http://place.map.kakao.com/2082996921,kakao,,,,2025-10-14T08:13:57.242Z,2025-10-14T08:13:57.242Z
424001222,숲요가필라테스 광교상현점,031-213-7718,경기 용인시 수지구 광교중앙로 314,37.2978944960282,127.069782031508,"스포츠,레저 > 요가,필라테스 > 필라테스",http://place.map.kakao.com/424001222,kakao,,,,2025-10-14T08:13:57.242Z,2025-10-14T08:13:57.242Z
1431766720,온요가필라테스 포스코점,010-9631-7880,부산 강서구 명지국제7로 37,35.0982232432712,128.907480012591,"스포츠,레저 > 요가,필라테스 > 필라테스",http://place.map.kakao.com/1431766720,kakao,,,,2025-10-14T08:13:57.242Z,2025-10-14T08:13:57.242Z
1476035989,더요가필라테스 덕천교육관,051-333-0023,부산 북구 만덕대로 74,35.21183713040776,129.0130364670351,"스포츠,레저 > 요가,필라테스 > 필라테스",http://place.map.kakao.com/1476035989,kakao,,,,2025-10-14T08:13:57.242Z,2025-10-14T08:13:57.242Z
16645486,앨리스 요가앤필라테스,051-746-7511,부산 해운대구 센텀3로 32,35.166512365331364,129.13375035312774,"스포츠,레저 > 요가,필라테스 > 필라테스",http://place.map.kakao.com/16645486,kakao,,,,2025-10-14T08:13:57.473Z,2025-10-14T08:13:57.473Z
1876506492,연요가&바움필라테스 부안점,063-582-4424,전북특별자치도 부안군 부안읍 석정로 230,35.7251665453595,126.736972157902,"스포츠,레저 > 요가,필라테스 > 필라테스",http://place.map.kakao.com/1876506492,kakao,,,,2025-10-14T08:13:57.473Z,2025-10-14T08:13:57.473Z
74577623,경희요가필라테스 올림픽공원점,02-422-8860,서울 송파구 위례성대로18길 31-20,37.5090825341972,127.125777654138,"스포츠,레저 > 요가,필라테스 > 필라테스",http://place.map.kakao.com/74577623,kakao,,,,2025-10-14T08:13:57.473Z,2025-10-14T08:13:57.473Z
27489035,마린코어요가&필라테스 천곡점,033-533-5856,강원특별자치도 동해시 중앙로 220,37.5204662399099,129.11559913885,"스포츠,레저 > 요가,필라테스 > 필라테스",http://place.map.kakao.com/27489035,kakao,,,,2025-10-14T08:13:57.473Z,2025-10-14T08:13:57.473Z
15096362,아난다 치유요가뷰티필라테스,055-266-3319,경남 창원시 성산구 용지로153번길 7,35.2289474559067,128.680141462898,"스포츠,레저 > 요가,필라테스 > 필라테스",http://place.map.kakao.com/15096362,kakao,,,,2025-10-14T08:13:57.473Z,2025-10-14T08:13:57.473Z
19024454,마디사랑요가앤필라테스,062-432-6246,광주 북구 매곡로 40,35.1884909624193,126.894517197422,"스포츠,레저 > 요가,필라테스 > 필라테스",http://place.map.kakao.com/19024454,kakao,,,,2025-10-14T08:13:57.473Z,2025-10-14T08:13:57.473Z
896003825,더요가필라테스 수성점,053-751-2767,대구 수성구 들안로 353,35.8615887478267,128.617518566371,"스포츠,레저 > 요가,필라테스 > 필라테스",http://place.map.kakao.com/896003825,kakao,,,,2025-10-14T08:13:57.473Z,2025-10-14T08:13:57.473Z
985047950,본요가필라테스,042-623-7370,대전 동구 동대전로 321,36.3490685004572,127.44301931569,"스포츠,레저 > 요가,필라테스 > 요가원",http://place.map.kakao.com/985047950,kakao,,,,2025-10-14T08:13:57.473Z,2025-10-14T08:13:57.473Z
17191729,쏘핫요가앤필라테스,033-261-9112,강원특별자치도 춘천시 퇴계농공로 11,37.8519606760074,127.745079917418,"스포츠,레저 > 요가,필라테스",http://place.map.kakao.com/17191729,kakao,,,,2025-10-14T08:13:57.473Z,2025-10-14T08:13:57.473Z
140612588,유진요가클래스,010-9233-0616,서울 강남구 언주로30길 27,37.488421857803,127.052587600529,"스포츠,레저 > 요가,필라테스 > 요가원",http://place.map.kakao.com/140612588,kakao,,,,2025-10-14T08:13:57.523Z,2025-10-14T08:13:57.523Z
1465198301,문창수 요가 원데이클래스,0502-5550-1326,제주특별자치도 서귀포시 칠십리로 109,33.2420869371577,126.566627965288,"스포츠,레저 > 요가,필라테스 > 요가원",http://place.map.kakao.com/1465198301,kakao,,,,2025-10-14T08:13:57.523Z,2025-10-14T08:13:57.523Z
14827135,요가전문클래스,,서울 동작구 국사봉1길 12,37.4987919840574,126.9292613243,"스포츠,레저 > 요가,필라테스",http://place.map.kakao.com/14827135,kakao,,,,2025-10-14T08:13:57.523Z,2025-10-14T08:13:57.523Z
1211628673,노루물요가,010-5525-3780,서울 용산구 후암로 2,37.5461886421496,126.978566485702,"스포츠,레저 > 요가,필라테스",http://place.map.kakao.com/1211628673,kakao,,,,2025-10-14T08:13:57.523Z,2025-10-14T08:13:57.523Z
278355071,어센틱그라운드,0502-5550-1594,서울 마포구 성미산로6길 8,37.5580834328461,126.910836632818,"스포츠,레저 > 요가,필라테스 > 요가원",http://place.map.kakao.com/278355071,kakao,,,,2025-10-14T08:13:57.523Z,2025-10-14T08:13:57.523Z